{"type":"FeatureCollection","features":[{"type":"Feature","properties":{"shapeName":"Barishal","districts":6,"labelLng":90.241,"labelLat":22.437},"geometry":{"type":"MultiPolygon","coordinates":[[[[91.008,22.334],[91.019,22.332],[91.024,22.317],[91.019,22.293],[91.008,22.334]]],[[[91.017,22.18],[91.015,22.176],[91.017,22.187],[91.017,22.18]]],[[[90.998,22.322],[91.016,22.297],[91.011,22.284],[91.001,22.306],[90.998,22.322]]],[[[91.011,22.245],[91.014,22.27],[91.013,22.241],[91.011,22.245]]],[[[90.895,22.094],[90.919,22.172],[90.959,22.253],[90.972,22.302],[90.97,22.343],[90.987,22.346],[91.001,22.278],[90.989,22.2],[90.92,22.075],[90.91,22.072],[90.898,22.099],[90.895,22.094]]],[[[90.949,22.391],[90.96,22.415],[90.972,22.421],[90.994,22.371],[90.965,22.366],[90.949,22.391]]],[[[90.934,22.434],[90.937,22.456],[90.951,22.465],[90.968,22.428],[90.948,22.418],[90.934,22.434]]],[[[90.963,22.301],[90.965,22.315],[90.965,22.3],[90.963,22.301]]],[[[90.911,22.304],[90.923,22.336],[90.932,22.347],[90.94,22.308],[90.926,22.298],[90.934,22.316],[90.932,22.323],[90.918,22.286],[90.911,22.304]]],[[[90.919,22.235],[90.931,22.284],[90.938,22.288],[90.932,22.248],[90.919,22.235]]],[[[90.84,22.568],[90.859,22.58],[90.894,22.56],[90.934,22.494],[90.904,22.508],[90.84,22.568]]],[[[90.899,22.207],[90.894,22.247],[90.91,22.297],[90.899,22.207]]],[[[90.897,22.451],[90.893,22.464],[90.909,22.467],[90.897,22.451]]],[[[90.853,22.543],[90.905,22.502],[90.905,22.496],[90.866,22.494],[90.853,22.543]]],[[[90.883,22.051],[90.88,22.084],[90.89,22.091],[90.896,22.055],[90.883,22.051]]],[[[90.891,22.093],[90.89,22.098],[90.896,22.089],[90.891,22.093]]],[[[90.871,22.334],[90.865,22.358],[90.886,22.396],[90.888,22.357],[90.898,22.356],[90.871,22.334]]],[[[90.876,22.102],[90.887,22.119],[90.894,22.125],[90.892,22.108],[90.876,22.102]]],[[[90.878,22.316],[90.883,22.325],[90.889,22.328],[90.887,22.316],[90.878,22.316]]],[[[90.877,22.299],[90.876,22.306],[90.879,22.306],[90.877,22.299]]],[[[90.871,22.289],[90.874,22.292],[90.873,22.288],[90.871,22.289]]],[[[90.831,21.965],[90.854,21.991],[90.868,21.977],[90.86,21.939],[90.85,21.939],[90.854,21.921],[90.838,21.932],[90.831,21.965]]],[[[90.528,22.754],[90.541,22.783],[90.599,22.808],[90.657,22.782],[90.663,22.746],[90.701,22.656],[90.725,22.619],[90.739,22.616],[90.759,22.594],[90.762,22.544],[90.773,22.518],[90.865,22.423],[90.837,22.352],[90.841,22.266],[90.811,22.125],[90.781,22.077],[90.741,22.053],[90.685,22.0],[90.629,21.994],[90.596,22.038],[90.623,22.114],[90.623,22.169],[90.612,22.165],[90.651,22.216],[90.677,22.275],[90.684,22.332],[90.682,22.361],[90.675,22.368],[90.678,22.392],[90.67,22.534],[90.657,22.557],[90.622,22.567],[90.62,22.588],[90.611,22.6],[90.622,22.559],[90.554,22.614],[90.543,22.618],[90.537,22.607],[90.537,22.632],[90.567,22.645],[90.578,22.659],[90.569,22.704],[90.562,22.717],[90.561,22.706],[90.546,22.709],[90.545,22.751],[90.541,22.735],[90.533,22.736],[90.528,22.754]],[[90.615,22.642],[90.617,22.639],[90.615,22.643],[90.615,22.642]],[[90.61,22.609],[90.616,22.619],[90.615,22.622],[90.61,22.609]],[[90.568,22.708],[90.57,22.706],[90.57,22.71],[90.568,22.708]],[[90.547,22.758],[90.547,22.756],[90.548,22.757],[90.547,22.758]]],[[[90.858,22.332],[90.854,22.337],[90.856,22.345],[90.858,22.332]]],[[[90.842,22.551],[90.852,22.546],[90.845,22.529],[90.842,22.541],[90.842,22.551]]],[[[90.841,21.992],[90.839,22.012],[90.847,21.998],[90.841,21.992]]],[[[90.768,21.857],[90.79,21.907],[90.807,21.925],[90.822,21.928],[90.805,21.916],[90.832,21.899],[90.829,21.884],[90.811,21.863],[90.768,21.857]]],[[[90.78,21.912],[90.78,21.935],[90.83,21.997],[90.818,21.945],[90.792,21.937],[90.78,21.912]]],[[[90.769,22.005],[90.775,22.021],[90.788,22.025],[90.785,22.004],[90.769,22.005]]],[[[90.754,21.99],[90.763,21.995],[90.774,21.997],[90.762,21.986],[90.754,21.99]]],[[[90.712,21.868],[90.716,21.899],[90.734,21.925],[90.756,21.932],[90.761,21.911],[90.742,21.867],[90.729,21.858],[90.712,21.868]]],[[[90.721,22.016],[90.741,22.048],[90.757,22.053],[90.736,22.021],[90.721,22.016]]],[[[90.742,22.662],[90.745,22.665],[90.747,22.66],[90.742,22.662]]],[[[90.731,22.68],[90.741,22.684],[90.745,22.668],[90.731,22.669],[90.731,22.68]]],[[[90.695,22.725],[90.705,22.752],[90.728,22.729],[90.72,22.726],[90.728,22.717],[90.721,22.679],[90.695,22.725]]],[[[90.714,22.0],[90.711,22.002],[90.725,22.014],[90.714,22.0]]],[[[90.702,22.661],[90.704,22.667],[90.712,22.65],[90.702,22.661]]],[[[90.678,21.987],[90.7,21.992],[90.709,21.997],[90.692,21.98],[90.678,21.987]]],[[[90.613,21.896],[90.633,21.975],[90.7,21.974],[90.68,21.93],[90.647,21.897],[90.613,21.896]]],[[[90.69,22.749],[90.689,22.751],[90.691,22.755],[90.69,22.749]]],[[[90.685,22.903],[90.687,22.906],[90.689,22.904],[90.685,22.903]]],[[[90.663,22.942],[90.687,22.918],[90.687,22.911],[90.673,22.929],[90.679,22.912],[90.671,22.908],[90.663,22.942]]],[[[90.677,22.773],[90.683,22.779],[90.687,22.779],[90.684,22.772],[90.677,22.773]]],[[[90.683,22.753],[90.683,22.764],[90.688,22.76],[90.683,22.753]]],[[[90.671,22.294],[90.676,22.351],[90.678,22.354],[90.679,22.33],[90.671,22.294]]],[[[90.679,22.355],[90.676,22.356],[90.676,22.362],[90.679,22.355]]],[[[90.482,22.854],[90.51,22.878],[90.553,22.888],[90.621,22.871],[90.651,22.848],[90.647,22.839],[90.656,22.845],[90.669,22.832],[90.676,22.808],[90.659,22.798],[90.626,22.812],[90.586,22.813],[90.541,22.794],[90.514,22.805],[90.497,22.802],[90.491,22.813],[90.488,22.796],[90.493,22.851],[90.486,22.846],[90.482,22.854]],[[90.656,22.809],[90.648,22.806],[90.658,22.808],[90.656,22.809]],[[90.501,22.822],[90.507,22.82],[90.507,22.815],[90.509,22.822],[90.501,22.822]],[[90.501,22.856],[90.504,22.862],[90.495,22.853],[90.501,22.856]],[[90.502,22.813],[90.502,22.811],[90.503,22.812],[90.502,22.813]]],[[[90.661,22.395],[90.665,22.433],[90.668,22.438],[90.673,22.386],[90.667,22.4],[90.668,22.389],[90.661,22.395]]],[[[90.664,22.259],[90.671,22.29],[90.674,22.29],[90.672,22.272],[90.664,22.259]]],[[[90.662,22.794],[90.673,22.798],[90.674,22.797],[90.662,22.794]]],[[[90.664,22.465],[90.67,22.46],[90.665,22.449],[90.664,22.465]]],[[[89.861,22.699],[89.905,22.726],[89.932,22.724],[89.931,22.752],[89.913,22.752],[89.904,22.773],[89.938,22.785],[89.914,22.8],[89.945,22.826],[89.939,22.865],[89.962,22.853],[90.018,22.871],[90.035,22.934],[90.057,22.933],[90.058,22.971],[90.069,22.968],[90.083,22.982],[90.095,23.007],[90.127,23.006],[90.127,23.026],[90.144,23.047],[90.137,23.053],[90.155,23.053],[90.165,23.068],[90.197,23.054],[90.212,23.069],[90.22,23.066],[90.238,23.037],[90.23,22.979],[90.238,22.966],[90.258,22.974],[90.257,22.964],[90.32,22.982],[90.329,23.007],[90.314,23.035],[90.316,23.053],[90.383,23.056],[90.424,23.035],[90.407,23.016],[90.408,23.007],[90.417,23.007],[90.407,22.999],[90.428,22.987],[90.472,22.978],[90.531,22.92],[90.529,22.899],[90.475,22.865],[90.471,22.807],[90.466,22.803],[90.452,22.816],[90.454,22.863],[90.439,22.805],[90.438,22.794],[90.445,22.807],[90.494,22.789],[90.495,22.775],[90.48,22.755],[90.491,22.739],[90.446,22.787],[90.445,22.766],[90.431,22.781],[90.431,22.76],[90.451,22.756],[90.442,22.763],[90.452,22.767],[90.453,22.755],[90.504,22.708],[90.478,22.674],[90.472,22.653],[90.503,22.696],[90.509,22.593],[90.478,22.579],[90.511,22.581],[90.591,22.53],[90.611,22.478],[90.591,22.455],[90.586,22.428],[90.615,22.405],[90.591,22.431],[90.618,22.476],[90.633,22.476],[90.632,22.463],[90.645,22.452],[90.64,22.418],[90.634,22.422],[90.643,22.382],[90.657,22.384],[90.658,22.373],[90.66,22.382],[90.668,22.378],[90.669,22.342],[90.661,22.354],[90.661,22.317],[90.644,22.314],[90.652,22.288],[90.617,22.259],[90.637,22.288],[90.618,22.274],[90.629,22.311],[90.614,22.318],[90.59,22.261],[90.533,22.211],[90.518,22.176],[90.503,22.166],[90.484,22.204],[90.497,22.155],[90.446,22.089],[90.432,22.078],[90.408,22.083],[90.391,22.089],[90.387,22.103],[90.387,22.119],[90.405,22.143],[90.404,22.17],[90.432,22.181],[90.427,22.188],[90.399,22.173],[90.399,22.148],[90.39,22.14],[90.396,22.134],[90.386,22.137],[90.375,22.114],[90.378,22.083],[90.332,22.047],[90.308,21.982],[90.298,21.992],[90.287,21.994],[90.271,22.021],[90.284,21.993],[90.265,21.976],[90.257,21.954],[90.231,21.975],[90.254,21.951],[90.288,21.989],[90.304,21.975],[90.259,21.844],[90.219,21.806],[90.182,21.797],[90.128,21.81],[90.1,21.823],[90.083,21.85],[90.11,21.879],[90.118,21.899],[90.149,21.893],[90.161,21.91],[90.173,21.907],[90.182,21.927],[90.189,21.928],[90.196,21.934],[90.198,21.947],[90.193,21.933],[90.179,21.927],[90.172,21.909],[90.157,21.911],[90.147,21.895],[90.119,21.903],[90.117,21.925],[90.147,21.929],[90.137,21.956],[90.159,21.981],[90.174,21.975],[90.222,21.982],[90.154,21.982],[90.133,21.953],[90.145,21.93],[90.115,21.926],[90.114,21.904],[90.075,21.861],[90.046,21.865],[90.027,21.88],[90.022,21.907],[90.029,21.945],[90.074,21.975],[90.075,22.004],[90.09,22.041],[90.14,22.084],[90.159,22.115],[90.19,22.106],[90.211,22.115],[90.225,22.142],[90.211,22.152],[90.203,22.124],[90.151,22.121],[90.086,22.06],[90.065,22.024],[90.056,21.979],[90.018,21.983],[89.996,22.0],[89.987,22.035],[90.029,22.053],[90.035,22.128],[90.071,22.16],[90.054,22.181],[90.036,22.187],[90.043,22.18],[90.032,22.178],[90.023,22.182],[90.028,22.189],[90.02,22.188],[90.023,22.174],[90.06,22.161],[90.022,22.137],[90.013,22.116],[90.023,22.081],[89.984,22.051],[89.972,22.031],[89.987,21.956],[89.958,21.947],[89.938,21.959],[89.936,21.999],[89.917,22.023],[89.901,22.072],[89.91,22.108],[89.907,22.159],[89.898,22.178],[89.886,22.177],[89.862,22.233],[89.858,22.269],[89.902,22.373],[89.871,22.419],[89.901,22.444],[89.934,22.448],[89.945,22.466],[89.931,22.478],[89.895,22.476],[89.882,22.497],[89.892,22.507],[89.965,22.493],[89.965,22.508],[89.923,22.51],[89.954,22.554],[89.962,22.593],[89.92,22.607],[89.927,22.642],[89.89,22.663],[89.897,22.675],[89.914,22.66],[89.937,22.681],[89.917,22.693],[89.868,22.692],[89.861,22.699]],[[90.595,22.489],[90.597,22.488],[90.596,22.49],[90.595,22.489]],[[90.495,22.212],[90.49,22.207],[90.496,22.211],[90.495,22.212]],[[90.446,22.878],[90.445,22.874],[90.455,22.863],[90.446,22.878]],[[90.434,22.191],[90.435,22.188],[90.436,22.191],[90.434,22.191]],[[90.228,21.979],[90.225,21.98],[90.228,21.978],[90.228,21.979]]],[[[90.425,22.99],[90.414,23.002],[90.452,23.006],[90.474,22.991],[90.474,22.983],[90.425,22.99]]],[[[90.646,22.919],[90.653,22.93],[90.657,22.928],[90.659,22.902],[90.649,22.911],[90.654,22.925],[90.646,22.919]]],[[[90.657,22.542],[90.66,22.546],[90.659,22.541],[90.657,22.542]]],[[[90.656,22.933],[90.655,22.939],[90.659,22.935],[90.656,22.933]]],[[[90.602,22.535],[90.614,22.552],[90.633,22.554],[90.651,22.55],[90.644,22.529],[90.633,22.538],[90.649,22.49],[90.628,22.494],[90.602,22.535]],[[90.629,22.552],[90.627,22.551],[90.629,22.55],[90.629,22.552]]],[[[90.65,22.94],[90.65,22.943],[90.651,22.942],[90.65,22.94]]],[[[90.633,22.481],[90.647,22.477],[90.644,22.462],[90.641,22.473],[90.633,22.481]]],[[[90.642,22.93],[90.64,22.932],[90.642,22.936],[90.642,22.93]]],[[[90.577,22.191],[90.586,22.205],[90.592,22.227],[90.589,22.241],[90.632,22.243],[90.628,22.203],[90.577,22.191]]],[[[90.567,21.993],[90.591,22.03],[90.622,21.991],[90.606,21.978],[90.567,21.993]]],[[[90.605,21.902],[90.61,21.964],[90.617,21.969],[90.611,21.909],[90.605,21.902]]],[[[90.481,22.049],[90.49,22.085],[90.567,22.179],[90.6,22.188],[90.608,22.109],[90.591,22.061],[90.504,21.959],[90.485,22.014],[90.505,22.029],[90.488,22.026],[90.481,22.049]]],[[[90.542,22.603],[90.552,22.613],[90.584,22.585],[90.592,22.573],[90.584,22.57],[90.607,22.555],[90.603,22.545],[90.557,22.568],[90.542,22.603]]],[[[90.56,22.895],[90.594,22.912],[90.601,22.901],[90.597,22.884],[90.56,22.895]]],[[[90.601,22.885],[90.603,22.896],[90.606,22.888],[90.601,22.885]]],[[[90.507,21.916],[90.519,21.945],[90.563,21.986],[90.603,21.973],[90.577,21.883],[90.517,21.892],[90.507,21.916]]],[[[90.546,23.011],[90.548,23.06],[90.59,23.025],[90.602,23.01],[90.596,23.014],[90.592,23.001],[90.588,23.022],[90.587,22.993],[90.566,23.042],[90.575,23.0],[90.558,23.009],[90.568,22.994],[90.546,23.011]]],[[[90.475,23.003],[90.49,23.023],[90.515,23.032],[90.587,22.945],[90.588,22.921],[90.54,22.897],[90.534,22.93],[90.515,22.955],[90.497,22.958],[90.483,22.975],[90.475,23.003]]],[[[90.566,22.196],[90.578,22.235],[90.587,22.239],[90.585,22.21],[90.566,22.196]],[[90.579,22.223],[90.578,22.226],[90.578,22.223],[90.579,22.223]]],[[[90.523,22.578],[90.522,22.701],[90.568,22.697],[90.566,22.648],[90.546,22.65],[90.54,22.672],[90.539,22.647],[90.525,22.642],[90.535,22.64],[90.527,22.615],[90.549,22.57],[90.534,22.586],[90.523,22.578]],[[90.564,22.657],[90.565,22.655],[90.565,22.657],[90.564,22.657]],[[90.532,22.588],[90.529,22.588],[90.531,22.587],[90.532,22.588]]],[[[90.562,21.995],[90.555,21.998],[90.566,22.009],[90.562,21.995]]],[[[90.504,21.866],[90.527,21.887],[90.558,21.861],[90.548,21.857],[90.504,21.866]]],[[[90.481,21.815],[90.481,21.842],[90.502,21.86],[90.551,21.855],[90.5,21.812],[90.481,21.815]]],[[[90.544,21.979],[90.545,21.985],[90.55,21.986],[90.544,21.979]]],[[[90.543,22.18],[90.538,22.19],[90.544,22.201],[90.543,22.18]]],[[[90.526,22.708],[90.529,22.725],[90.529,22.725],[90.538,22.709],[90.526,22.708]]],[[[90.536,23.071],[90.532,23.071],[90.536,23.071],[90.536,23.071]]],[[[90.485,22.754],[90.502,22.775],[90.502,22.792],[90.52,22.8],[90.529,22.786],[90.521,22.71],[90.485,22.754]]],[[[90.524,23.061],[90.524,23.062],[90.529,23.065],[90.524,23.061]]],[[[90.523,23.071],[90.522,23.072],[90.528,23.072],[90.523,23.071]]],[[[90.526,23.057],[90.528,23.058],[90.527,23.051],[90.526,23.057]]],[[[90.488,21.891],[90.5,21.911],[90.512,21.892],[90.493,21.876],[90.488,21.891]]],[[[90.5,22.134],[90.498,22.138],[90.506,22.14],[90.5,22.134]]],[[[90.483,23.066],[90.499,23.069],[90.498,23.049],[90.487,23.05],[90.483,23.066]]],[[[90.307,21.883],[90.356,21.979],[90.419,22.033],[90.466,22.054],[90.498,21.964],[90.484,21.937],[90.465,21.919],[90.409,21.894],[90.391,21.865],[90.387,21.863],[90.393,21.871],[90.372,21.885],[90.355,21.915],[90.377,21.874],[90.358,21.852],[90.321,21.849],[90.307,21.883]]],[[[90.464,21.853],[90.465,21.864],[90.484,21.889],[90.482,21.857],[90.464,21.853]]],[[[90.474,21.904],[90.484,21.92],[90.486,21.921],[90.484,21.913],[90.474,21.904]]],[[[90.475,22.055],[90.48,22.064],[90.479,22.045],[90.485,22.032],[90.481,22.037],[90.475,22.055]]],[[[90.461,21.807],[90.472,21.819],[90.48,21.801],[90.475,21.804],[90.461,21.807]]],[[[90.474,21.77],[90.477,21.782],[90.48,21.771],[90.474,21.77]]],[[[90.469,22.054],[90.468,22.055],[90.469,22.057],[90.469,22.054]]],[[[90.451,22.057],[90.451,22.066],[90.458,22.068],[90.46,22.063],[90.451,22.057]]],[[[90.43,21.836],[90.433,21.846],[90.456,21.86],[90.46,21.841],[90.43,21.836]]],[[[90.417,21.882],[90.423,21.897],[90.46,21.911],[90.451,21.891],[90.417,21.882]]],[[[90.448,22.059],[90.444,22.062],[90.447,22.063],[90.448,22.059]]],[[[90.414,21.859],[90.434,21.865],[90.437,21.869],[90.431,21.86],[90.414,21.859]]],[[[90.34,21.991],[90.348,22.003],[90.34,22.022],[90.365,22.061],[90.393,22.086],[90.424,22.078],[90.391,22.039],[90.34,21.991]],[[90.393,22.047],[90.388,22.047],[90.392,22.045],[90.393,22.047]],[[90.384,22.054],[90.381,22.053],[90.385,22.051],[90.384,22.054]],[[90.377,22.053],[90.376,22.047],[90.38,22.054],[90.377,22.053]],[[90.364,22.041],[90.353,22.009],[90.365,22.036],[90.373,22.045],[90.364,22.041]]],[[[90.406,21.876],[90.408,21.888],[90.418,21.893],[90.416,21.884],[90.406,21.876]]],[[[90.392,21.796],[90.383,21.792],[90.391,21.806],[90.392,21.796]]],[[[90.366,21.84],[90.368,21.854],[90.381,21.854],[90.384,21.837],[90.366,21.84]]],[[[90.347,22.041],[90.345,22.049],[90.349,22.052],[90.347,22.041]]],[[[89.888,22.165],[89.891,22.158],[89.891,22.15],[89.889,22.158],[89.888,22.165]]],[[[89.885,22.084],[89.875,22.083],[89.883,22.091],[89.885,22.084]]]]}},{"type":"Feature","properties":{"shapeName":"Chattogram","districts":11,"labelLng":92.122,"labelLat":22.506},"geometry":{"type":"MultiPolygon","coordinates":[[[[90.539,23.379],[90.542,23.399],[90.578,23.451],[90.584,23.481],[90.576,23.496],[90.613,23.49],[90.641,23.504],[90.682,23.49],[90.711,23.508],[90.687,23.557],[90.647,23.576],[90.647,23.589],[90.667,23.59],[90.655,23.617],[90.63,23.621],[90.64,23.675],[90.677,23.68],[90.709,23.662],[90.733,23.667],[90.741,23.698],[90.725,23.718],[90.723,23.745],[90.766,23.803],[90.762,23.86],[90.833,23.863],[90.858,23.879],[90.895,23.863],[90.909,23.868],[90.931,23.911],[90.95,23.926],[90.953,23.954],[90.973,23.969],[90.966,24.005],[90.975,24.021],[91.051,24.079],[91.043,24.111],[90.994,24.142],[90.985,24.153],[90.989,24.162],[91.04,24.212],[91.09,24.212],[91.079,24.228],[91.085,24.241],[91.134,24.243],[91.174,24.265],[91.195,24.24],[91.266,24.225],[91.286,24.225],[91.284,24.245],[91.302,24.266],[91.321,24.264],[91.329,24.249],[91.324,24.23],[91.299,24.222],[91.298,24.214],[91.284,24.218],[91.277,24.203],[91.286,24.195],[91.313,24.203],[91.313,24.183],[91.305,24.191],[91.277,24.181],[91.275,24.157],[91.262,24.146],[91.272,24.141],[91.272,24.124],[91.292,24.117],[91.271,24.112],[91.268,24.095],[91.293,24.094],[91.284,24.061],[91.304,24.056],[91.312,24.029],[91.295,24.005],[91.303,23.997],[91.3,23.972],[91.288,23.968],[91.285,23.982],[91.264,23.945],[91.276,23.923],[91.234,23.927],[91.246,23.913],[91.229,23.899],[91.23,23.881],[91.254,23.837],[91.227,23.792],[91.226,23.751],[91.219,23.737],[91.21,23.749],[91.167,23.75],[91.149,23.712],[91.154,23.689],[91.208,23.687],[91.199,23.647],[91.157,23.669],[91.162,23.596],[91.178,23.592],[91.195,23.548],[91.213,23.551],[91.201,23.52],[91.224,23.514],[91.219,23.499],[91.236,23.502],[91.237,23.489],[91.249,23.49],[91.252,23.454],[91.276,23.415],[91.28,23.377],[91.294,23.375],[91.284,23.371],[91.295,23.361],[91.291,23.351],[91.32,23.36],[91.311,23.343],[91.296,23.341],[91.29,23.319],[91.313,23.306],[91.315,23.297],[91.3,23.292],[91.317,23.282],[91.31,23.276],[91.318,23.253],[91.327,23.252],[91.319,23.245],[91.323,23.159],[91.348,23.119],[91.347,23.102],[91.37,23.071],[91.396,23.056],[91.417,23.064],[91.417,23.083],[91.4,23.097],[91.403,23.114],[91.38,23.185],[91.388,23.207],[91.381,23.209],[91.392,23.22],[91.386,23.228],[91.401,23.23],[91.392,23.246],[91.408,23.248],[91.398,23.265],[91.411,23.256],[91.409,23.285],[91.416,23.283],[91.419,23.259],[91.454,23.261],[91.449,23.245],[91.458,23.246],[91.47,23.228],[91.451,23.219],[91.459,23.214],[91.475,23.22],[91.484,23.209],[91.472,23.196],[91.503,23.192],[91.507,23.184],[91.492,23.178],[91.498,23.172],[91.491,23.158],[91.507,23.154],[91.499,23.143],[91.515,23.145],[91.503,23.13],[91.518,23.126],[91.511,23.105],[91.53,23.092],[91.531,23.039],[91.55,23.039],[91.539,23.02],[91.548,23.019],[91.543,22.999],[91.557,22.997],[91.557,22.979],[91.577,22.966],[91.59,22.977],[91.606,22.972],[91.614,22.959],[91.6,22.955],[91.616,22.952],[91.618,22.939],[91.645,22.985],[91.67,22.977],[91.694,22.988],[91.72,22.988],[91.771,23.034],[91.768,23.041],[91.78,23.029],[91.774,23.07],[91.805,23.063],[91.835,23.093],[91.813,23.099],[91.809,23.165],[91.795,23.187],[91.785,23.24],[91.776,23.243],[91.777,23.269],[91.761,23.277],[91.762,23.303],[91.825,23.353],[91.845,23.405],[91.861,23.405],[91.9,23.441],[91.942,23.435],[91.937,23.467],[91.969,23.478],[91.971,23.503],[91.956,23.526],[91.964,23.535],[91.954,23.61],[91.934,23.684],[91.957,23.694],[91.948,23.714],[91.957,23.734],[91.978,23.733],[92.0,23.672],[92.046,23.647],[92.079,23.649],[92.083,23.68],[92.1,23.677],[92.121,23.693],[92.144,23.733],[92.162,23.74],[92.172,23.738],[92.178,23.708],[92.207,23.701],[92.212,23.653],[92.223,23.653],[92.233,23.668],[92.241,23.721],[92.266,23.725],[92.289,23.702],[92.291,23.681],[92.273,23.643],[92.282,23.639],[92.278,23.627],[92.296,23.621],[92.287,23.617],[92.287,23.599],[92.302,23.592],[92.313,23.557],[92.306,23.535],[92.318,23.526],[92.317,23.487],[92.326,23.479],[92.318,23.472],[92.332,23.466],[92.333,23.429],[92.346,23.433],[92.348,23.414],[92.357,23.411],[92.353,23.381],[92.365,23.38],[92.357,23.372],[92.364,23.366],[92.371,23.374],[92.379,23.362],[92.365,23.323],[92.386,23.306],[92.381,23.285],[92.404,23.241],[92.35,23.235],[92.364,23.157],[92.357,23.134],[92.368,23.128],[92.358,23.103],[92.38,23.086],[92.392,23.057],[92.373,22.94],[92.376,22.937],[92.377,22.929],[92.398,22.929],[92.401,22.912],[92.419,22.919],[92.434,22.886],[92.449,22.895],[92.448,22.877],[92.46,22.871],[92.452,22.863],[92.464,22.855],[92.457,22.851],[92.463,22.843],[92.454,22.841],[92.462,22.831],[92.454,22.82],[92.472,22.796],[92.474,22.746],[92.513,22.733],[92.529,22.666],[92.524,22.641],[92.539,22.59],[92.538,22.575],[92.522,22.56],[92.551,22.514],[92.543,22.491],[92.552,22.411],[92.581,22.322],[92.588,22.216],[92.611,22.139],[92.605,22.123],[92.579,22.143],[92.563,22.128],[92.575,22.116],[92.592,22.066],[92.603,22.062],[92.593,22.04],[92.598,22.012],[92.613,21.991],[92.603,21.981],[92.618,21.94],[92.611,21.929],[92.622,21.921],[92.634,21.875],[92.632,21.863],[92.614,21.852],[92.621,21.825],[92.608,21.804],[92.601,21.703],[92.609,21.585],[92.651,21.359],[92.68,21.286],[92.63,21.269],[92.623,21.251],[92.596,21.244],[92.561,21.38],[92.509,21.377],[92.511,21.364],[92.499,21.361],[92.439,21.365],[92.428,21.424],[92.381,21.48],[92.344,21.467],[92.329,21.419],[92.269,21.428],[92.27,21.4],[92.256,21.389],[92.259,21.362],[92.212,21.34],[92.198,21.32],[92.22,21.258],[92.211,21.248],[92.218,21.232],[92.173,21.181],[92.173,21.171],[92.176,21.16],[92.199,21.161],[92.201,21.124],[92.224,21.12],[92.234,21.097],[92.258,21.079],[92.265,21.062],[92.251,21.026],[92.263,20.944],[92.272,20.916],[92.299,20.889],[92.313,20.858],[92.341,20.747],[92.352,20.742],[92.331,20.747],[92.312,20.767],[92.224,20.913],[92.182,21.015],[92.046,21.185],[92.048,21.286],[92.035,21.329],[92.017,21.368],[91.949,21.459],[91.97,21.476],[91.97,21.458],[92.002,21.516],[92.01,21.509],[91.992,21.57],[92.002,21.594],[92.018,21.602],[92.005,21.601],[92.004,21.621],[91.963,21.669],[91.947,21.716],[91.961,21.669],[91.983,21.643],[91.993,21.607],[91.988,21.612],[91.977,21.51],[91.971,21.502],[91.939,21.503],[91.939,21.492],[91.922,21.491],[91.904,21.503],[91.919,21.49],[91.938,21.488],[91.914,21.469],[91.914,21.477],[91.893,21.48],[91.863,21.506],[91.853,21.523],[91.864,21.52],[91.851,21.529],[91.863,21.543],[91.885,21.544],[91.859,21.567],[91.861,21.575],[91.874,21.573],[91.882,21.594],[91.88,21.606],[91.865,21.595],[91.892,21.655],[91.878,21.677],[91.888,21.654],[91.877,21.648],[91.857,21.67],[91.856,21.686],[91.909,21.816],[91.917,21.858],[91.909,21.929],[91.89,21.948],[91.87,22.003],[91.878,22.047],[91.847,22.15],[91.857,22.15],[91.854,22.138],[91.86,22.129],[91.9,22.12],[91.907,22.125],[91.904,22.135],[91.877,22.147],[91.9,22.156],[91.879,22.161],[91.872,22.151],[91.905,22.125],[91.859,22.135],[91.862,22.15],[91.85,22.155],[91.842,22.142],[91.853,22.117],[91.843,22.117],[91.812,22.208],[91.815,22.229],[91.841,22.263],[91.804,22.279],[91.798,22.291],[91.825,22.317],[91.86,22.324],[91.881,22.339],[91.871,22.333],[91.875,22.352],[91.885,22.356],[91.889,22.391],[91.911,22.414],[91.945,22.422],[91.969,22.411],[91.982,22.416],[91.951,22.425],[91.927,22.424],[91.893,22.406],[91.884,22.418],[91.891,22.427],[91.885,22.423],[91.883,22.416],[91.891,22.406],[91.862,22.334],[91.819,22.321],[91.794,22.297],[91.798,22.279],[91.834,22.26],[91.8,22.226],[91.766,22.272],[91.768,22.302],[91.737,22.429],[91.69,22.514],[91.585,22.616],[91.582,22.634],[91.558,22.661],[91.476,22.719],[91.447,22.784],[91.417,22.813],[91.431,22.838],[91.445,22.827],[91.441,22.835],[91.428,22.839],[91.405,22.809],[91.423,22.797],[91.42,22.787],[91.43,22.779],[91.422,22.749],[91.393,22.782],[91.392,22.775],[91.365,22.777],[91.335,22.794],[91.339,22.841],[91.334,22.846],[91.323,22.842],[91.328,22.848],[91.319,22.842],[91.336,22.84],[91.328,22.79],[91.385,22.765],[91.384,22.756],[91.299,22.745],[91.259,22.697],[91.227,22.72],[91.229,22.714],[91.211,22.713],[91.207,22.726],[91.197,22.732],[91.211,22.705],[91.233,22.705],[91.248,22.68],[91.264,22.684],[91.283,22.635],[91.271,22.633],[91.288,22.619],[91.259,22.585],[91.229,22.526],[91.215,22.531],[91.209,22.524],[91.162,22.521],[91.151,22.54],[91.153,22.501],[91.113,22.488],[91.16,22.5],[91.159,22.514],[91.171,22.52],[91.191,22.52],[91.201,22.511],[91.166,22.48],[91.152,22.451],[91.136,22.443],[91.112,22.452],[91.082,22.485],[91.093,22.521],[91.108,22.53],[91.118,22.541],[91.091,22.522],[91.078,22.493],[91.036,22.556],[90.891,22.66],[90.847,22.673],[90.785,22.769],[90.782,22.835],[90.716,22.94],[90.719,22.916],[90.721,22.922],[90.736,22.89],[90.725,22.879],[90.669,22.965],[90.649,22.977],[90.643,23.108],[90.65,23.123],[90.644,23.117],[90.639,23.13],[90.64,23.143],[90.648,23.135],[90.637,23.175],[90.637,23.227],[90.66,23.245],[90.663,23.284],[90.643,23.323],[90.644,23.338],[90.629,23.351],[90.632,23.336],[90.611,23.347],[90.591,23.343],[90.591,23.336],[90.576,23.358],[90.547,23.367],[90.539,23.379]],[[92.543,22.499],[92.545,22.5],[92.543,22.5],[92.543,22.499]],[[92.534,22.586],[92.536,22.587],[92.534,22.587],[92.534,22.586]],[[92.373,22.935],[92.374,22.936],[92.373,22.936],[92.373,22.935]],[[92.018,21.606],[92.018,21.613],[92.011,21.621],[92.011,21.62],[92.018,21.606]],[[92.012,21.501],[92.01,21.499],[92.012,21.5],[92.012,21.501]],[[92.007,21.503],[92.01,21.507],[92.009,21.508],[92.007,21.503]],[[91.98,22.175],[91.985,22.167],[91.974,22.166],[91.986,22.165],[91.98,22.175]],[[91.981,22.15],[91.971,22.155],[91.981,22.149],[91.981,22.15]],[[91.971,22.177],[91.962,22.17],[91.972,22.176],[91.971,22.177]],[[91.97,22.161],[91.969,22.163],[91.969,22.161],[91.97,22.161]],[[91.957,22.171],[91.953,22.171],[91.957,22.17],[91.957,22.171]],[[91.944,22.182],[91.939,22.18],[91.951,22.173],[91.944,22.182]],[[91.936,22.171],[91.938,22.172],[91.937,22.178],[91.936,22.171]],[[91.903,22.155],[91.918,22.185],[91.923,22.171],[91.931,22.169],[91.918,22.187],[91.903,22.155]],[[91.886,21.694],[91.898,21.694],[91.905,21.699],[91.886,21.694]],[[91.884,22.431],[91.89,22.428],[91.891,22.428],[91.884,22.431]],[[91.882,21.613],[91.883,21.611],[91.883,21.613],[91.882,21.613]],[[91.879,21.687],[91.88,21.684],[91.882,21.689],[91.879,21.687]],[[91.879,22.478],[91.879,22.471],[91.88,22.478],[91.879,22.478]],[[91.876,22.431],[91.878,22.431],[91.876,22.432],[91.876,22.431]],[[91.866,22.442],[91.873,22.435],[91.866,22.443],[91.866,22.442]],[[91.873,22.471],[91.871,22.472],[91.873,22.47],[91.873,22.471]],[[91.87,22.157],[91.869,22.159],[91.869,22.156],[91.87,22.157]],[[91.858,22.453],[91.862,22.45],[91.859,22.456],[91.858,22.453]],[[91.47,22.861],[91.449,22.826],[91.452,22.828],[91.47,22.861]],[[91.33,22.851],[91.33,22.847],[91.332,22.85],[91.33,22.851]],[[91.135,22.557],[91.136,22.555],[91.136,22.557],[91.135,22.557]],[[91.12,22.542],[91.13,22.543],[91.135,22.552],[91.128,22.545],[91.12,22.542]],[[90.683,23.325],[90.67,23.337],[90.669,23.336],[90.683,23.325]],[[90.68,23.323],[90.672,23.319],[90.681,23.322],[90.68,23.323]],[[90.667,23.343],[90.669,23.341],[90.672,23.348],[90.667,23.343]],[[90.66,23.333],[90.646,23.337],[90.666,23.322],[90.66,23.333]],[[90.65,23.128],[90.647,23.129],[90.649,23.128],[90.65,23.128]]],[[[91.991,21.596],[91.998,21.601],[91.992,21.594],[91.991,21.596]]],[[[91.965,22.414],[91.959,22.42],[91.974,22.413],[91.965,22.414]]],[[[90.711,22.895],[90.715,22.886],[90.715,22.886],[90.713,22.887],[90.711,22.895]]],[[[92.315,20.628],[92.327,20.635],[92.332,20.591],[92.325,20.595],[92.325,20.618],[92.315,20.628]]],[[[92.272,20.922],[92.28,20.92],[92.287,20.904],[92.282,20.907],[92.272,20.922]]],[[[92.263,20.988],[92.264,20.993],[92.266,20.982],[92.263,20.988]]],[[[91.829,21.723],[91.852,21.828],[91.841,21.859],[91.846,21.899],[91.874,21.923],[91.893,21.896],[91.895,21.861],[91.846,21.724],[91.829,21.723]]],[[[91.883,21.644],[91.882,21.644],[91.886,21.646],[91.883,21.644]]],[[[91.847,21.61],[91.866,21.622],[91.856,21.582],[91.851,21.582],[91.847,21.61]]],[[[91.847,21.525],[91.847,21.529],[91.851,21.523],[91.847,21.525]]],[[[91.838,21.535],[91.841,21.54],[91.841,21.528],[91.838,21.535]]],[[[91.42,22.523],[91.42,22.597],[91.459,22.609],[91.499,22.568],[91.566,22.469],[91.568,22.409],[91.526,22.389],[91.48,22.4],[91.436,22.475],[91.42,22.523]]],[[[91.287,22.7],[91.293,22.717],[91.308,22.727],[91.338,22.732],[91.36,22.725],[91.41,22.68],[91.395,22.632],[91.38,22.627],[91.328,22.641],[91.304,22.662],[91.287,22.7]]],[[[91.353,22.374],[91.393,22.423],[91.404,22.42],[91.405,22.382],[91.391,22.373],[91.353,22.374]]],[[[91.266,22.52],[91.274,22.555],[91.311,22.603],[91.352,22.61],[91.353,22.574],[91.338,22.565],[91.351,22.562],[91.353,22.527],[91.343,22.531],[91.343,22.543],[91.338,22.527],[91.343,22.517],[91.331,22.519],[91.334,22.507],[91.326,22.501],[91.313,22.507],[91.318,22.498],[91.291,22.484],[91.266,22.52]]],[[[91.271,22.443],[91.277,22.448],[91.277,22.441],[91.271,22.443]]],[[[91.246,22.426],[91.261,22.433],[91.264,22.415],[91.252,22.411],[91.246,22.426]]],[[[91.004,22.114],[91.038,22.158],[91.068,22.242],[91.069,22.34],[91.059,22.349],[91.075,22.364],[91.07,22.407],[91.132,22.384],[91.143,22.371],[91.175,22.384],[91.189,22.344],[91.191,22.247],[91.165,22.169],[91.137,22.146],[91.136,22.132],[91.115,22.127],[91.058,22.079],[91.004,22.114]]],[[[91.049,22.054],[91.069,22.063],[91.085,22.062],[91.061,22.031],[91.049,22.054]]],[[[91.043,22.375],[91.051,22.386],[91.055,22.36],[91.05,22.362],[91.043,22.375]]],[[[91.02,22.352],[91.041,22.374],[91.054,22.349],[91.033,22.338],[91.02,22.352]]],[[[90.973,22.052],[90.978,22.082],[91.001,22.101],[91.048,22.074],[91.032,22.039],[91.018,22.035],[91.022,22.044],[90.991,22.023],[90.973,22.052]]],[[[90.987,22.454],[91.002,22.463],[91.017,22.459],[91.045,22.436],[91.03,22.377],[91.013,22.36],[91.004,22.371],[90.987,22.454]]],[[[91.015,22.243],[91.024,22.317],[91.019,22.332],[91.037,22.32],[91.015,22.243]]],[[[91.015,22.176],[91.023,22.195],[91.031,22.2],[91.024,22.177],[91.015,22.176]]],[[[90.972,22.421],[90.981,22.417],[90.99,22.391],[90.972,22.421]]],[[[90.894,22.56],[90.951,22.547],[90.982,22.507],[90.934,22.494],[90.894,22.56]]],[[[90.951,22.465],[90.962,22.471],[90.978,22.465],[90.968,22.428],[90.951,22.465]]],[[[90.733,22.874],[90.74,22.887],[90.754,22.873],[90.776,22.829],[90.77,22.809],[90.733,22.874]]],[[[90.719,22.878],[90.725,22.873],[90.725,22.873],[90.722,22.873],[90.719,22.878]]],[[[90.701,22.865],[90.699,22.868],[90.701,22.868],[90.701,22.865]]],[[[90.687,22.899],[90.685,22.903],[90.697,22.9],[90.687,22.899]]],[[[90.666,22.944],[90.673,22.938],[90.687,22.918],[90.685,22.917],[90.666,22.944]]],[[[90.667,22.96],[90.671,22.958],[90.671,22.958],[90.667,22.96]]],[[[90.644,22.837],[90.651,22.848],[90.656,22.845],[90.644,22.837]]],[[[90.638,23.309],[90.643,23.307],[90.642,23.303],[90.638,23.309]]],[[[90.638,23.151],[90.641,23.157],[90.641,23.145],[90.638,23.151]]],[[[90.62,23.332],[90.626,23.326],[90.625,23.336],[90.633,23.333],[90.639,23.319],[90.627,23.32],[90.62,23.332]]],[[[90.632,23.259],[90.632,23.269],[90.637,23.254],[90.632,23.259]]],[[[90.629,23.246],[90.626,23.244],[90.627,23.248],[90.629,23.246]]],[[[90.627,23.263],[90.612,23.306],[90.623,23.288],[90.627,23.263]]],[[[90.548,23.06],[90.568,23.087],[90.578,23.087],[90.586,23.067],[90.579,23.059],[90.594,23.024],[90.594,23.047],[90.584,23.052],[90.589,23.072],[90.58,23.087],[90.592,23.095],[90.574,23.091],[90.583,23.104],[90.574,23.099],[90.573,23.111],[90.591,23.108],[90.592,23.095],[90.598,23.111],[90.616,23.093],[90.62,23.064],[90.617,23.051],[90.613,23.063],[90.609,23.033],[90.595,23.044],[90.608,23.029],[90.602,23.01],[90.548,23.06]],[[90.572,23.059],[90.574,23.06],[90.572,23.06],[90.572,23.059]]],[[[90.586,23.302],[90.606,23.291],[90.606,23.3],[90.608,23.293],[90.605,23.284],[90.619,23.265],[90.587,23.284],[90.597,23.284],[90.586,23.302]],[[90.602,23.281],[90.601,23.279],[90.603,23.279],[90.602,23.281]]],[[[90.612,23.28],[90.617,23.28],[90.619,23.271],[90.612,23.28]]],[[[90.612,23.017],[90.613,23.036],[90.614,23.036],[90.612,23.017]]],[[[90.602,23.224],[90.61,23.219],[90.608,23.214],[90.608,23.214],[90.602,23.224]]],[[[90.608,23.192],[90.605,23.202],[90.61,23.199],[90.608,23.192]]],[[[90.601,23.227],[90.597,23.23],[90.603,23.227],[90.601,23.227]]],[[[90.6,23.316],[90.6,23.318],[90.602,23.317],[90.6,23.316]]],[[[90.59,23.309],[90.591,23.313],[90.596,23.31],[90.59,23.309]]],[[[90.572,23.297],[90.581,23.297],[90.586,23.287],[90.576,23.292],[90.572,23.297]]],[[[90.556,23.135],[90.561,23.144],[90.572,23.152],[90.556,23.135]]]]}},{"type":"Feature","properties":{"shapeName":"Dhaka","districts":13,"labelLng":90.234,"labelLat":23.824},"geometry":{"type":"MultiPolygon","coordinates":[[[[89.298,23.736],[89.323,23.766],[89.31,23.768],[89.311,23.776],[89.33,23.779],[89.336,23.829],[89.363,23.87],[89.355,23.886],[89.357,23.898],[89.365,23.895],[89.365,23.911],[89.385,23.908],[89.469,23.839],[89.515,23.819],[89.571,23.808],[89.584,23.814],[89.672,23.81],[89.732,23.835],[89.704,23.877],[89.697,23.867],[89.702,23.895],[89.684,23.939],[89.693,23.943],[89.693,23.987],[89.722,24.014],[89.785,24.035],[89.817,24.064],[89.825,24.088],[89.82,24.14],[89.803,24.16],[89.788,24.158],[89.78,24.166],[89.799,24.175],[89.783,24.237],[89.79,24.276],[89.774,24.302],[89.771,24.33],[89.752,24.351],[89.766,24.376],[89.747,24.431],[89.755,24.455],[89.742,24.456],[89.742,24.471],[89.757,24.483],[89.747,24.483],[89.758,24.5],[89.734,24.518],[89.748,24.521],[89.746,24.537],[89.77,24.54],[89.773,24.565],[89.789,24.572],[89.811,24.567],[89.817,24.576],[89.81,24.584],[89.828,24.587],[89.823,24.595],[89.834,24.603],[89.827,24.609],[89.836,24.609],[89.842,24.624],[89.853,24.62],[89.842,24.645],[89.869,24.649],[89.865,24.661],[89.878,24.679],[89.891,24.674],[89.899,24.682],[89.88,24.708],[89.88,24.742],[89.908,24.735],[89.927,24.745],[89.922,24.756],[89.936,24.757],[89.941,24.744],[89.958,24.744],[89.958,24.732],[89.981,24.725],[90.02,24.755],[90.027,24.774],[90.076,24.788],[90.098,24.756],[90.089,24.752],[90.09,24.737],[90.133,24.734],[90.127,24.718],[90.148,24.635],[90.131,24.618],[90.125,24.596],[90.14,24.576],[90.151,24.575],[90.152,24.55],[90.169,24.538],[90.174,24.519],[90.187,24.523],[90.209,24.509],[90.207,24.498],[90.244,24.481],[90.21,24.46],[90.229,24.42],[90.249,24.415],[90.229,24.348],[90.234,24.335],[90.248,24.333],[90.261,24.292],[90.29,24.278],[90.325,24.299],[90.359,24.3],[90.363,24.281],[90.379,24.291],[90.402,24.283],[90.428,24.31],[90.426,24.33],[90.443,24.341],[90.488,24.314],[90.529,24.303],[90.521,24.288],[90.573,24.247],[90.622,24.269],[90.649,24.258],[90.641,24.307],[90.618,24.339],[90.639,24.378],[90.646,24.416],[90.634,24.435],[90.587,24.448],[90.574,24.482],[90.604,24.499],[90.638,24.476],[90.678,24.467],[90.682,24.502],[90.703,24.518],[90.722,24.472],[90.743,24.51],[90.753,24.503],[90.758,24.513],[90.794,24.508],[90.82,24.588],[90.84,24.58],[90.857,24.599],[90.907,24.595],[90.916,24.614],[90.927,24.616],[90.939,24.602],[90.963,24.611],[90.977,24.6],[91.018,24.603],[91.03,24.63],[91.041,24.624],[91.038,24.611],[91.073,24.619],[91.105,24.6],[91.105,24.608],[91.129,24.61],[91.13,24.642],[91.164,24.632],[91.175,24.643],[91.195,24.631],[91.179,24.63],[91.177,24.62],[91.2,24.609],[91.198,24.587],[91.234,24.569],[91.211,24.521],[91.183,24.495],[91.169,24.5],[91.15,24.48],[91.193,24.481],[91.185,24.472],[91.191,24.466],[91.205,24.481],[91.219,24.475],[91.221,24.485],[91.232,24.473],[91.242,24.427],[91.218,24.432],[91.214,24.403],[91.238,24.407],[91.256,24.379],[91.213,24.362],[91.235,24.333],[91.235,24.316],[91.176,24.321],[91.159,24.284],[91.196,24.293],[91.193,24.28],[91.134,24.243],[91.085,24.241],[91.079,24.229],[91.091,24.212],[91.04,24.212],[90.989,24.162],[90.985,24.153],[90.994,24.142],[91.043,24.111],[91.054,24.089],[91.042,24.066],[90.975,24.021],[90.966,24.005],[90.973,23.969],[90.953,23.954],[90.95,23.926],[90.931,23.911],[90.92,23.883],[90.902,23.864],[90.858,23.879],[90.833,23.863],[90.767,23.864],[90.759,23.85],[90.766,23.803],[90.723,23.745],[90.725,23.718],[90.741,23.698],[90.733,23.667],[90.709,23.662],[90.676,23.68],[90.638,23.671],[90.63,23.621],[90.653,23.62],[90.666,23.596],[90.667,23.589],[90.647,23.589],[90.647,23.576],[90.687,23.557],[90.711,23.508],[90.682,23.49],[90.641,23.504],[90.613,23.49],[90.576,23.495],[90.584,23.481],[90.578,23.451],[90.542,23.399],[90.539,23.38],[90.547,23.367],[90.576,23.358],[90.591,23.336],[90.535,23.339],[90.525,23.326],[90.506,23.325],[90.514,23.318],[90.496,23.324],[90.502,23.302],[90.546,23.283],[90.608,23.214],[90.572,23.152],[90.513,23.103],[90.499,23.069],[90.483,23.065],[90.496,23.039],[90.457,23.015],[90.408,23.007],[90.421,23.04],[90.383,23.056],[90.33,23.058],[90.316,23.052],[90.315,23.035],[90.329,23.007],[90.32,22.981],[90.257,22.964],[90.258,22.974],[90.248,22.975],[90.239,22.966],[90.23,22.979],[90.237,23.045],[90.214,23.07],[90.201,23.054],[90.165,23.068],[90.155,23.053],[90.137,23.053],[90.144,23.048],[90.127,23.026],[90.127,23.006],[90.095,23.007],[90.084,22.981],[90.069,22.968],[90.058,22.971],[90.057,22.933],[90.035,22.933],[90.013,22.867],[89.954,22.854],[89.94,22.865],[89.944,22.856],[89.922,22.865],[89.919,22.881],[89.851,22.888],[89.865,22.903],[89.801,22.941],[89.806,22.959],[89.793,22.979],[89.797,22.996],[89.762,23.008],[89.747,23.049],[89.729,23.055],[89.736,23.073],[89.691,23.099],[89.673,23.123],[89.686,23.133],[89.707,23.114],[89.738,23.13],[89.732,23.168],[89.765,23.18],[89.733,23.186],[89.691,23.163],[89.679,23.183],[89.687,23.224],[89.67,23.244],[89.642,23.232],[89.633,23.237],[89.637,23.262],[89.669,23.279],[89.622,23.296],[89.621,23.308],[89.633,23.298],[89.644,23.299],[89.622,23.309],[89.603,23.341],[89.608,23.37],[89.599,23.379],[89.618,23.387],[89.607,23.421],[89.606,23.473],[89.572,23.498],[89.526,23.513],[89.51,23.509],[89.508,23.478],[89.494,23.477],[89.49,23.5],[89.5,23.52],[89.537,23.536],[89.5,23.558],[89.497,23.579],[89.471,23.597],[89.48,23.627],[89.44,23.64],[89.439,23.659],[89.412,23.682],[89.386,23.676],[89.375,23.665],[89.349,23.671],[89.348,23.683],[89.322,23.703],[89.311,23.731],[89.298,23.736]],[[90.458,23.027],[90.462,23.026],[90.46,23.029],[90.458,23.027]]],[[[90.578,23.325],[90.571,23.328],[90.584,23.329],[90.578,23.325]]],[[[90.529,23.328],[90.533,23.334],[90.572,23.334],[90.559,23.329],[90.552,23.321],[90.529,23.328]]],[[[90.565,23.324],[90.563,23.328],[90.566,23.328],[90.565,23.324]]],[[[90.514,23.084],[90.544,23.095],[90.553,23.106],[90.541,23.087],[90.523,23.083],[90.52,23.077],[90.514,23.084]]],[[[90.536,23.071],[90.535,23.075],[90.537,23.074],[90.536,23.071]]],[[[90.53,23.074],[90.522,23.072],[90.528,23.083],[90.53,23.074]]],[[[90.517,23.321],[90.516,23.323],[90.523,23.322],[90.517,23.321]]],[[[90.489,23.014],[90.478,23.016],[90.49,23.023],[90.489,23.014]]],[[[90.457,23.011],[90.459,23.014],[90.459,23.014],[90.457,23.011]]],[[[90.453,23.004],[90.457,23.006],[90.458,23.004],[90.453,23.004]]]]}},{"type":"Feature","properties":{"shapeName":"Khulna","districts":10,"labelLng":89.332,"labelLat":22.988},"geometry":{"type":"MultiPolygon","coordinates":[[[[88.556,23.784],[88.577,23.786],[88.595,23.806],[88.585,23.814],[88.602,23.816],[88.587,23.83],[88.591,23.853],[88.578,23.851],[88.575,23.862],[88.587,23.872],[88.608,23.863],[88.617,23.877],[88.626,23.865],[88.667,23.87],[88.664,23.882],[88.683,23.889],[88.688,23.902],[88.702,23.901],[88.706,23.916],[88.733,23.911],[88.735,23.934],[88.742,23.932],[88.733,23.961],[88.74,23.985],[88.769,23.982],[88.757,24.007],[88.729,23.997],[88.742,24.034],[88.727,24.053],[88.737,24.062],[88.724,24.069],[88.728,24.101],[88.7,24.094],[88.693,24.111],[88.746,24.147],[88.732,24.172],[88.733,24.194],[88.787,24.133],[88.817,24.121],[88.844,24.126],[88.862,24.108],[88.881,24.115],[88.878,24.101],[88.911,24.113],[88.911,24.126],[88.923,24.129],[88.921,24.119],[88.94,24.132],[89.007,24.118],[89.026,24.092],[89.063,23.987],[89.096,23.973],[89.099,23.96],[89.17,23.951],[89.179,23.963],[89.178,23.987],[89.216,23.988],[89.217,23.972],[89.237,23.973],[89.236,23.946],[89.262,23.91],[89.264,23.879],[89.271,23.877],[89.279,23.906],[89.312,23.874],[89.347,23.889],[89.361,23.883],[89.351,23.841],[89.336,23.829],[89.33,23.779],[89.312,23.776],[89.323,23.766],[89.299,23.736],[89.311,23.731],[89.322,23.703],[89.348,23.683],[89.35,23.671],[89.375,23.665],[89.386,23.677],[89.412,23.682],[89.44,23.659],[89.44,23.64],[89.48,23.627],[89.471,23.597],[89.497,23.579],[89.5,23.558],[89.538,23.536],[89.5,23.52],[89.49,23.5],[89.494,23.477],[89.508,23.478],[89.51,23.509],[89.526,23.513],[89.572,23.498],[89.606,23.473],[89.607,23.421],[89.618,23.387],[89.6,23.379],[89.608,23.37],[89.603,23.341],[89.622,23.309],[89.645,23.299],[89.621,23.307],[89.622,23.296],[89.669,23.278],[89.637,23.262],[89.633,23.237],[89.642,23.233],[89.665,23.246],[89.687,23.224],[89.679,23.183],[89.691,23.163],[89.733,23.186],[89.765,23.18],[89.732,23.168],[89.739,23.13],[89.707,23.114],[89.68,23.134],[89.673,23.128],[89.678,23.113],[89.736,23.073],[89.729,23.055],[89.747,23.049],[89.762,23.008],[89.797,22.996],[89.793,22.98],[89.806,22.959],[89.801,22.941],[89.865,22.903],[89.851,22.888],[89.919,22.881],[89.922,22.865],[89.944,22.856],[89.945,22.826],[89.914,22.8],[89.938,22.785],[89.905,22.772],[89.913,22.752],[89.931,22.752],[89.932,22.724],[89.905,22.726],[89.861,22.699],[89.868,22.692],[89.917,22.693],[89.937,22.68],[89.914,22.66],[89.897,22.675],[89.89,22.663],[89.927,22.642],[89.92,22.607],[89.962,22.593],[89.954,22.554],[89.924,22.51],[89.97,22.501],[89.951,22.492],[89.892,22.507],[89.882,22.497],[89.895,22.476],[89.931,22.478],[89.945,22.466],[89.934,22.448],[89.901,22.444],[89.871,22.419],[89.902,22.373],[89.858,22.269],[89.862,22.233],[89.886,22.177],[89.877,22.176],[89.885,22.141],[89.877,22.097],[89.845,22.064],[89.806,22.075],[89.835,22.101],[89.842,22.119],[89.838,22.127],[89.813,22.145],[89.837,22.164],[89.808,22.218],[89.805,22.209],[89.834,22.163],[89.815,22.15],[89.811,22.14],[89.837,22.123],[89.798,22.073],[89.79,22.083],[89.775,22.092],[89.758,22.135],[89.744,22.138],[89.747,22.187],[89.731,22.199],[89.737,22.209],[89.744,22.203],[89.739,22.213],[89.73,22.201],[89.733,22.193],[89.745,22.186],[89.739,22.134],[89.755,22.133],[89.774,22.087],[89.739,22.052],[89.743,22.035],[89.756,22.034],[89.758,22.025],[89.759,22.035],[89.746,22.036],[89.742,22.052],[89.776,22.089],[89.823,22.051],[89.826,22.037],[89.83,22.033],[89.827,22.048],[89.838,22.05],[89.856,22.028],[89.861,21.966],[89.876,21.91],[89.858,21.877],[89.848,21.874],[89.847,21.895],[89.809,21.924],[89.845,21.956],[89.836,21.969],[89.805,21.989],[89.837,22.0],[89.842,22.005],[89.841,22.025],[89.836,22.001],[89.804,21.991],[89.804,21.988],[89.816,21.978],[89.83,21.971],[89.843,21.956],[89.814,21.94],[89.807,21.92],[89.845,21.892],[89.836,21.851],[89.772,21.835],[89.786,21.871],[89.784,21.887],[89.772,21.852],[89.749,21.856],[89.734,21.892],[89.716,21.905],[89.733,21.928],[89.731,21.948],[89.725,21.941],[89.715,21.961],[89.748,21.973],[89.747,21.983],[89.737,21.991],[89.749,21.994],[89.753,22.005],[89.743,22.015],[89.749,21.999],[89.734,21.991],[89.746,21.976],[89.726,21.97],[89.724,21.98],[89.708,21.986],[89.707,22.007],[89.698,22.009],[89.704,22.034],[89.678,22.052],[89.711,22.074],[89.713,22.128],[89.724,22.133],[89.713,22.131],[89.694,22.183],[89.711,22.186],[89.714,22.198],[89.707,22.204],[89.692,22.197],[89.737,22.273],[89.735,22.283],[89.704,22.278],[89.714,22.35],[89.701,22.312],[89.667,22.367],[89.661,22.37],[89.641,22.366],[89.666,22.364],[89.677,22.337],[89.705,22.307],[89.7,22.276],[89.735,22.277],[89.687,22.198],[89.695,22.192],[89.71,22.199],[89.709,22.188],[89.696,22.191],[89.69,22.179],[89.71,22.105],[89.704,22.072],[89.685,22.067],[89.674,22.076],[89.669,22.088],[89.682,22.092],[89.684,22.095],[89.684,22.098],[89.667,22.088],[89.672,22.075],[89.681,22.066],[89.673,22.048],[89.699,22.032],[89.676,21.988],[89.686,21.957],[89.677,21.923],[89.657,21.903],[89.628,21.945],[89.648,21.969],[89.646,21.985],[89.626,21.981],[89.624,22.002],[89.64,21.991],[89.628,22.004],[89.62,21.999],[89.621,21.988],[89.626,21.979],[89.645,21.983],[89.645,21.965],[89.626,21.948],[89.587,21.95],[89.562,21.975],[89.582,21.954],[89.568,21.942],[89.548,21.962],[89.572,22.049],[89.599,22.089],[89.608,22.129],[89.559,22.19],[89.554,22.21],[89.593,22.228],[89.599,22.253],[89.594,22.276],[89.613,22.297],[89.625,22.294],[89.615,22.3],[89.636,22.35],[89.629,22.366],[89.62,22.363],[89.625,22.344],[89.582,22.279],[89.587,22.243],[89.578,22.241],[89.573,22.254],[89.559,22.257],[89.55,22.293],[89.553,22.263],[89.558,22.256],[89.571,22.253],[89.572,22.236],[89.528,22.197],[89.542,22.203],[89.584,22.125],[89.532,21.995],[89.51,22.017],[89.534,22.063],[89.527,22.096],[89.538,22.097],[89.518,22.101],[89.476,22.232],[89.495,22.266],[89.497,22.279],[89.493,22.266],[89.48,22.309],[89.474,22.305],[89.434,22.357],[89.449,22.387],[89.448,22.405],[89.434,22.414],[89.425,22.411],[89.439,22.386],[89.418,22.355],[89.479,22.273],[89.462,22.253],[89.415,22.238],[89.434,22.278],[89.41,22.304],[89.426,22.327],[89.426,22.332],[89.422,22.345],[89.421,22.324],[89.399,22.334],[89.401,22.35],[89.384,22.35],[89.4,22.348],[89.396,22.334],[89.416,22.321],[89.406,22.306],[89.427,22.282],[89.412,22.259],[89.412,22.235],[89.461,22.243],[89.457,22.215],[89.472,22.168],[89.462,22.148],[89.433,22.166],[89.413,22.197],[89.394,22.201],[89.406,22.21],[89.395,22.22],[89.409,22.22],[89.394,22.223],[89.392,22.22],[89.402,22.209],[89.39,22.199],[89.411,22.195],[89.429,22.167],[89.406,22.152],[89.406,22.134],[89.385,22.138],[89.405,22.13],[89.382,22.12],[89.38,22.1],[89.37,22.1],[89.351,22.118],[89.352,22.136],[89.336,22.128],[89.33,22.136],[89.341,22.153],[89.337,22.18],[89.325,22.19],[89.335,22.199],[89.332,22.216],[89.33,22.201],[89.307,22.214],[89.31,22.184],[89.265,22.137],[89.262,22.143],[89.264,22.113],[89.251,22.101],[89.233,22.105],[89.219,22.097],[89.208,22.127],[89.227,22.134],[89.213,22.141],[89.221,22.152],[89.211,22.139],[89.224,22.134],[89.204,22.128],[89.192,22.151],[89.208,22.146],[89.222,22.173],[89.196,22.185],[89.199,22.174],[89.22,22.172],[89.205,22.147],[89.191,22.155],[89.191,22.134],[89.216,22.089],[89.245,22.059],[89.202,22.003],[89.187,22.025],[89.163,22.028],[89.155,22.038],[89.179,22.065],[89.123,22.117],[89.119,22.126],[89.138,22.124],[89.144,22.13],[89.126,22.154],[89.087,22.179],[89.141,22.13],[89.116,22.126],[89.148,22.078],[89.136,22.066],[89.149,22.077],[89.174,22.062],[89.157,22.056],[89.147,22.04],[89.163,21.995],[89.133,21.963],[89.139,21.922],[89.154,21.914],[89.201,21.913],[89.185,21.874],[89.185,21.837],[89.168,21.803],[89.152,21.795],[89.099,21.814],[89.103,21.822],[89.115,21.817],[89.103,21.826],[89.098,21.877],[89.08,21.904],[89.092,21.948],[89.095,21.939],[89.105,21.943],[89.097,21.94],[89.094,21.954],[89.094,22.019],[89.068,22.054],[89.076,22.057],[89.056,22.065],[89.048,22.097],[89.099,22.143],[89.102,22.156],[89.089,22.162],[89.075,22.149],[89.067,22.169],[89.073,22.198],[89.042,22.225],[89.035,22.258],[89.016,22.254],[89.019,22.269],[88.996,22.286],[88.999,22.296],[89.025,22.296],[89.001,22.324],[88.986,22.326],[88.983,22.376],[88.991,22.391],[88.973,22.409],[89.002,22.429],[88.991,22.445],[88.997,22.47],[88.98,22.486],[88.961,22.55],[88.938,22.561],[88.939,22.592],[88.961,22.616],[88.935,22.618],[88.929,22.652],[88.945,22.663],[88.962,22.695],[88.928,22.718],[88.916,22.737],[88.921,22.753],[88.911,22.758],[88.938,22.793],[88.958,22.797],[88.968,22.844],[88.946,22.88],[88.928,22.873],[88.905,22.886],[88.895,22.913],[88.908,22.919],[88.887,22.934],[88.894,22.952],[88.859,22.944],[88.857,22.969],[88.871,22.979],[88.865,23.0],[88.845,23.011],[88.88,23.008],[88.872,23.018],[88.884,23.04],[88.861,23.077],[88.874,23.09],[88.868,23.101],[88.9,23.112],[88.921,23.143],[88.931,23.144],[88.928,23.163],[88.939,23.177],[88.957,23.182],[88.962,23.193],[88.975,23.192],[88.977,23.183],[88.987,23.203],[88.98,23.213],[88.995,23.215],[88.983,23.221],[88.98,23.216],[88.978,23.215],[88.971,23.223],[88.942,23.206],[88.929,23.217],[88.915,23.213],[88.907,23.236],[88.886,23.226],[88.874,23.234],[88.845,23.231],[88.837,23.243],[88.824,23.234],[88.828,23.245],[88.811,23.256],[88.811,23.222],[88.791,23.218],[88.774,23.225],[88.769,23.245],[88.754,23.24],[88.719,23.255],[88.724,23.272],[88.698,23.292],[88.696,23.302],[88.711,23.313],[88.707,23.305],[88.725,23.298],[88.725,23.318],[88.731,23.32],[88.73,23.31],[88.745,23.307],[88.75,23.321],[88.733,23.328],[88.739,23.343],[88.732,23.353],[88.746,23.349],[88.748,23.362],[88.765,23.368],[88.749,23.398],[88.761,23.409],[88.755,23.414],[88.763,23.447],[88.795,23.444],[88.787,23.47],[88.8,23.498],[88.771,23.497],[88.775,23.48],[88.761,23.491],[88.761,23.479],[88.741,23.48],[88.724,23.512],[88.698,23.516],[88.683,23.542],[88.66,23.549],[88.65,23.585],[88.639,23.591],[88.644,23.608],[88.58,23.603],[88.594,23.617],[88.594,23.64],[88.562,23.637],[88.558,23.649],[88.574,23.667],[88.565,23.713],[88.579,23.774],[88.556,23.784]],[[89.811,21.887],[89.811,21.884],[89.812,21.887],[89.811,21.887]],[[89.804,22.053],[89.806,22.055],[89.803,22.054],[89.804,22.053]],[[89.804,21.879],[89.802,21.878],[89.805,21.878],[89.804,21.879]],[[89.798,21.876],[89.798,21.873],[89.799,21.876],[89.798,21.876]],[[89.797,22.05],[89.798,22.053],[89.796,22.051],[89.797,22.05]],[[89.788,21.877],[89.788,21.875],[89.789,21.877],[89.788,21.877]],[[89.779,21.905],[89.788,21.909],[89.783,21.918],[89.786,21.909],[89.776,21.904],[89.784,21.891],[89.779,21.905]],[[89.775,21.91],[89.778,21.919],[89.774,21.91],[89.775,21.91]],[[89.769,21.954],[89.769,21.952],[89.77,21.954],[89.769,21.954]],[[89.762,21.951],[89.759,21.948],[89.763,21.95],[89.762,21.951]],[[89.751,22.2],[89.757,22.214],[89.756,22.232],[89.755,22.214],[89.751,22.2]],[[89.75,21.887],[89.755,21.886],[89.75,21.889],[89.75,21.887]],[[89.75,22.199],[89.748,22.196],[89.751,22.198],[89.75,22.199]],[[89.743,22.016],[89.745,22.021],[89.742,22.016],[89.743,22.016]],[[89.734,21.95],[89.732,21.948],[89.735,21.949],[89.734,21.95]],[[89.677,22.208],[89.682,22.214],[89.675,22.208],[89.677,22.208]],[[89.664,22.139],[89.672,22.143],[89.682,22.132],[89.674,22.145],[89.664,22.139]],[[89.679,22.122],[89.678,22.127],[89.678,22.122],[89.679,22.122]],[[89.67,22.108],[89.675,22.118],[89.671,22.116],[89.67,22.108]],[[89.673,22.256],[89.671,22.253],[89.674,22.256],[89.673,22.256]],[[89.667,22.102],[89.669,22.107],[89.666,22.102],[89.667,22.102]],[[89.669,22.098],[89.666,22.097],[89.67,22.097],[89.669,22.098]],[[89.663,22.277],[89.669,22.276],[89.663,22.278],[89.663,22.277]],[[89.666,22.057],[89.668,22.056],[89.666,22.058],[89.666,22.057]],[[89.661,22.054],[89.659,22.052],[89.666,22.053],[89.661,22.054]],[[89.662,22.149],[89.659,22.148],[89.657,22.14],[89.662,22.149]],[[89.661,22.018],[89.654,22.043],[89.653,22.03],[89.661,22.018]],[[89.655,22.073],[89.65,22.069],[89.656,22.072],[89.655,22.073]],[[89.654,22.004],[89.645,21.993],[89.655,22.004],[89.654,22.004]],[[89.649,22.098],[89.652,22.084],[89.65,22.099],[89.649,22.098]],[[89.646,22.283],[89.65,22.283],[89.644,22.286],[89.646,22.283]],[[89.637,22.097],[89.648,22.1],[89.635,22.098],[89.637,22.097]],[[89.642,22.162],[89.637,22.163],[89.647,22.156],[89.642,22.162]],[[89.635,22.034],[89.637,22.034],[89.635,22.035],[89.635,22.034]],[[89.632,22.099],[89.634,22.099],[89.633,22.1],[89.632,22.099]],[[89.605,22.179],[89.614,22.167],[89.633,22.166],[89.607,22.179],[89.617,22.19],[89.619,22.198],[89.605,22.179]],[[89.629,22.102],[89.628,22.096],[89.629,22.096],[89.629,22.102]],[[89.616,22.093],[89.622,22.097],[89.615,22.093],[89.616,22.093]],[[89.623,22.279],[89.616,22.278],[89.623,22.278],[89.623,22.279]],[[89.622,22.272],[89.622,22.274],[89.621,22.272],[89.622,22.272]],[[89.621,22.047],[89.621,22.041],[89.622,22.047],[89.621,22.047]],[[89.615,22.241],[89.619,22.219],[89.62,22.219],[89.615,22.241]],[[89.601,22.23],[89.601,22.216],[89.603,22.21],[89.617,22.201],[89.604,22.212],[89.603,22.229],[89.616,22.215],[89.621,22.215],[89.604,22.231],[89.601,22.23]],[[89.607,22.248],[89.618,22.256],[89.606,22.249],[89.607,22.248]],[[89.617,22.262],[89.609,22.268],[89.617,22.261],[89.617,22.262]],[[89.615,22.027],[89.609,22.031],[89.615,22.026],[89.615,22.027]],[[89.61,22.245],[89.605,22.245],[89.61,22.244],[89.61,22.245]],[[89.609,22.01],[89.607,22.013],[89.607,22.008],[89.609,22.01]],[[89.607,22.091],[89.6,22.086],[89.608,22.09],[89.607,22.091]],[[89.606,22.005],[89.564,21.976],[89.588,21.986],[89.606,22.005]],[[89.599,22.03],[89.596,22.027],[89.605,22.023],[89.599,22.03]],[[89.515,22.326],[89.527,22.331],[89.552,22.294],[89.554,22.304],[89.528,22.332],[89.515,22.326]],[[89.548,22.116],[89.545,22.096],[89.55,22.112],[89.548,22.116]],[[89.54,22.138],[89.539,22.134],[89.541,22.138],[89.54,22.138]],[[89.537,22.13],[89.539,22.126],[89.538,22.131],[89.537,22.13]],[[89.514,22.363],[89.536,22.342],[89.535,22.345],[89.514,22.363]],[[89.526,22.207],[89.533,22.208],[89.535,22.21],[89.534,22.211],[89.526,22.207]],[[89.529,22.226],[89.529,22.223],[89.534,22.23],[89.529,22.226]],[[89.527,22.221],[89.532,22.215],[89.528,22.222],[89.527,22.221]],[[89.519,22.339],[89.515,22.336],[89.529,22.339],[89.519,22.339]],[[89.513,22.335],[89.513,22.332],[89.514,22.336],[89.513,22.335]],[[89.487,22.341],[89.486,22.337],[89.489,22.339],[89.487,22.341]],[[89.487,22.363],[89.487,22.356],[89.488,22.363],[89.487,22.363]],[[89.483,22.37],[89.487,22.372],[89.483,22.371],[89.483,22.37]],[[89.485,22.301],[89.487,22.3],[89.486,22.302],[89.485,22.301]],[[89.461,22.332],[89.482,22.31],[89.482,22.318],[89.461,22.332]],[[89.474,22.383],[89.477,22.384],[89.474,22.384],[89.474,22.383]],[[89.469,22.376],[89.47,22.374],[89.473,22.379],[89.469,22.376]],[[89.467,22.343],[89.462,22.342],[89.468,22.342],[89.467,22.343]],[[89.456,22.339],[89.46,22.334],[89.459,22.343],[89.456,22.339]],[[89.446,22.166],[89.451,22.165],[89.445,22.168],[89.446,22.166]],[[89.435,22.184],[89.436,22.182],[89.437,22.184],[89.435,22.184]],[[89.41,22.293],[89.412,22.293],[89.411,22.294],[89.41,22.293]],[[89.409,22.289],[89.409,22.292],[89.407,22.289],[89.409,22.289]],[[89.407,22.379],[89.41,22.379],[89.408,22.38],[89.407,22.379]],[[89.405,22.272],[89.409,22.278],[89.402,22.279],[89.401,22.278],[89.405,22.272]],[[89.403,22.291],[89.406,22.291],[89.404,22.292],[89.403,22.291]],[[89.4,22.389],[89.402,22.387],[89.4,22.393],[89.4,22.389]],[[89.391,22.24],[89.394,22.24],[89.392,22.241],[89.391,22.24]],[[89.391,22.284],[89.394,22.282],[89.392,22.285],[89.391,22.284]],[[89.384,22.268],[89.384,22.27],[89.383,22.269],[89.384,22.268]],[[89.365,22.375],[89.369,22.385],[89.367,22.392],[89.362,22.374],[89.383,22.372],[89.381,22.356],[89.384,22.35],[89.384,22.373],[89.365,22.375]],[[89.376,22.14],[89.383,22.151],[89.382,22.152],[89.376,22.14]],[[89.367,22.318],[89.378,22.31],[89.378,22.316],[89.367,22.318]],[[89.375,22.26],[89.377,22.26],[89.376,22.261],[89.375,22.26]],[[89.371,22.268],[89.373,22.267],[89.372,22.269],[89.371,22.268]],[[89.368,22.214],[89.368,22.211],[89.371,22.213],[89.368,22.214]],[[89.364,22.182],[89.367,22.184],[89.363,22.182],[89.364,22.182]],[[89.366,22.269],[89.364,22.266],[89.367,22.268],[89.366,22.269]],[[89.362,22.322],[89.364,22.321],[89.362,22.323],[89.362,22.322]],[[89.359,22.268],[89.36,22.271],[89.359,22.269],[89.359,22.268]],[[89.356,22.184],[89.359,22.183],[89.358,22.186],[89.356,22.184]],[[89.26,22.151],[89.264,22.149],[89.261,22.152],[89.26,22.151]],[[89.261,22.168],[89.262,22.165],[89.263,22.167],[89.261,22.168]],[[89.223,22.154],[89.246,22.161],[89.227,22.2],[89.24,22.209],[89.25,22.227],[89.224,22.2],[89.242,22.161],[89.223,22.154]],[[89.193,22.22],[89.199,22.194],[89.202,22.216],[89.193,22.22]],[[89.196,22.192],[89.196,22.188],[89.197,22.192],[89.196,22.192]],[[89.192,22.12],[89.194,22.118],[89.193,22.12],[89.192,22.12]],[[89.184,22.228],[89.191,22.228],[89.192,22.221],[89.193,22.229],[89.184,22.228]],[[89.188,22.122],[89.192,22.122],[89.188,22.123],[89.188,22.122]],[[89.179,22.101],[89.178,22.081],[89.181,22.101],[89.192,22.115],[89.179,22.101]],[[89.187,22.183],[89.188,22.18],[89.188,22.183],[89.187,22.183]],[[89.187,22.177],[89.182,22.171],[89.188,22.176],[89.187,22.177]],[[89.182,22.122],[89.186,22.123],[89.181,22.123],[89.182,22.122]],[[89.182,22.165],[89.184,22.167],[89.181,22.166],[89.182,22.165]],[[89.174,21.842],[89.18,21.84],[89.173,21.844],[89.174,21.842]],[[89.175,22.122],[89.17,22.14],[89.167,22.131],[89.175,22.122]],[[89.174,22.082],[89.166,22.084],[89.175,22.081],[89.174,22.082]],[[89.172,21.848],[89.172,21.845],[89.173,21.846],[89.172,21.848]],[[89.161,22.151],[89.169,22.142],[89.17,22.141],[89.165,22.151],[89.161,22.151]],[[89.163,21.853],[89.164,21.85],[89.164,21.853],[89.163,21.853]],[[89.158,22.207],[89.16,22.204],[89.16,22.207],[89.158,22.207]],[[89.152,21.861],[89.154,21.859],[89.154,21.861],[89.152,21.861]],[[89.146,22.183],[89.144,22.173],[89.148,22.184],[89.146,22.183]],[[89.144,22.152],[89.147,22.153],[89.143,22.155],[89.144,22.152]],[[89.139,22.164],[89.142,22.16],[89.141,22.168],[89.139,22.164]],[[89.132,22.009],[89.132,22.007],[89.133,22.008],[89.132,22.009]],[[89.13,21.853],[89.132,21.85],[89.131,21.853],[89.13,21.853]],[[89.129,21.996],[89.13,21.998],[89.128,21.996],[89.129,21.996]],[[89.122,21.87],[89.129,21.859],[89.122,21.871],[89.122,21.87]],[[89.123,22.07],[89.125,22.073],[89.122,22.071],[89.123,22.07]],[[89.125,22.047],[89.125,22.049],[89.124,22.047],[89.125,22.047]],[[89.123,21.882],[89.123,21.88],[89.124,21.882],[89.123,21.882]],[[89.12,22.068],[89.12,22.07],[89.119,22.068],[89.12,22.068]],[[89.12,21.822],[89.116,21.843],[89.114,21.838],[89.12,21.822]],[[89.119,21.992],[89.119,21.979],[89.12,21.979],[89.119,21.992]],[[89.119,21.877],[89.12,21.875],[89.12,21.877],[89.119,21.877]],[[89.118,21.846],[89.118,21.844],[89.119,21.845],[89.118,21.846]],[[89.118,21.819],[89.117,21.817],[89.119,21.817],[89.118,21.819]],[[89.107,21.96],[89.115,21.954],[89.109,21.944],[89.117,21.955],[89.108,21.96],[89.112,21.967],[89.108,21.975],[89.107,21.96]],[[89.116,22.029],[89.117,22.031],[89.116,22.03],[89.116,22.029]],[[89.108,21.976],[89.114,21.979],[89.107,21.976],[89.108,21.976]],[[89.106,22.051],[89.107,22.053],[89.105,22.052],[89.106,22.051]],[[89.098,22.051],[89.093,22.044],[89.105,22.046],[89.098,22.051]],[[89.083,22.097],[89.094,22.097],[89.082,22.098],[89.083,22.097]],[[89.096,22.022],[89.094,22.024],[89.094,22.02],[89.096,22.022]],[[89.095,22.03],[89.092,22.037],[89.094,22.029],[89.095,22.03]],[[89.09,22.061],[89.089,22.057],[89.091,22.062],[89.09,22.061]],[[88.974,23.222],[88.981,23.222],[88.976,23.224],[88.974,23.222]],[[88.78,23.44],[88.782,23.439],[88.782,23.441],[88.78,23.44]],[[88.574,23.738],[88.576,23.734],[88.575,23.738],[88.574,23.738]]],[[[89.886,22.167],[89.891,22.15],[89.891,22.147],[89.887,22.156],[89.886,22.167]]],[[[89.851,21.855],[89.863,21.853],[89.861,21.835],[89.852,21.847],[89.851,21.855]]],[[[89.837,21.825],[89.844,21.827],[89.856,21.81],[89.841,21.81],[89.837,21.825]]],[[[89.658,21.887],[89.682,21.912],[89.695,21.953],[89.686,21.993],[89.703,22.007],[89.704,21.986],[89.722,21.977],[89.711,21.957],[89.727,21.929],[89.711,21.902],[89.741,21.866],[89.742,21.84],[89.708,21.834],[89.701,21.842],[89.708,21.844],[89.707,21.848],[89.682,21.846],[89.673,21.837],[89.658,21.887]],[[89.702,21.866],[89.705,21.873],[89.705,21.882],[89.704,21.881],[89.702,21.866]],[[89.704,21.851],[89.699,21.85],[89.705,21.85],[89.704,21.851]],[[89.701,21.864],[89.699,21.863],[89.702,21.863],[89.701,21.864]],[[89.696,21.862],[89.699,21.859],[89.696,21.863],[89.696,21.862]],[[89.693,21.853],[89.69,21.853],[89.693,21.851],[89.693,21.853]]],[[[89.542,21.957],[89.569,21.934],[89.546,21.881],[89.548,21.916],[89.542,21.957]]],[[[89.571,21.934],[89.588,21.946],[89.622,21.945],[89.646,21.91],[89.626,21.883],[89.626,21.864],[89.697,21.794],[89.699,21.773],[89.688,21.764],[89.659,21.753],[89.647,21.764],[89.636,21.757],[89.61,21.765],[89.615,21.802],[89.556,21.852],[89.549,21.876],[89.571,21.934]],[[89.591,21.879],[89.593,21.878],[89.592,21.88],[89.591,21.879]],[[89.58,21.889],[89.583,21.888],[89.581,21.89],[89.58,21.889]],[[89.573,21.934],[89.575,21.932],[89.574,21.934],[89.573,21.934]]],[[[89.631,21.876],[89.646,21.898],[89.66,21.863],[89.648,21.859],[89.631,21.876]]],[[[89.531,21.823],[89.54,21.849],[89.548,21.849],[89.604,21.801],[89.602,21.777],[89.587,21.764],[89.606,21.719],[89.574,21.714],[89.555,21.725],[89.536,21.772],[89.547,21.771],[89.54,21.782],[89.548,21.8],[89.531,21.823]]],[[[89.422,21.97],[89.439,21.99],[89.433,22.053],[89.489,22.091],[89.515,22.08],[89.517,22.06],[89.496,22.03],[89.479,22.05],[89.514,22.078],[89.461,22.049],[89.471,22.046],[89.508,21.957],[89.503,21.912],[89.454,21.909],[89.461,21.939],[89.422,21.97]],[[89.488,21.933],[89.501,21.929],[89.488,21.934],[89.488,21.933]],[[89.473,21.987],[89.493,21.975],[89.471,21.991],[89.473,21.987]],[[89.484,21.953],[89.484,21.943],[89.485,21.954],[89.484,21.953]],[[89.474,21.939],[89.479,21.937],[89.48,21.938],[89.474,21.939]],[[89.469,21.942],[89.471,21.941],[89.47,21.942],[89.469,21.942]],[[89.458,22.051],[89.454,22.051],[89.458,22.05],[89.458,22.051]]],[[[89.471,22.136],[89.483,22.144],[89.496,22.131],[89.509,22.088],[89.485,22.097],[89.471,22.136]]],[[[89.348,21.806],[89.382,21.878],[89.381,21.922],[89.389,21.922],[89.408,21.931],[89.389,21.932],[89.383,21.924],[89.363,21.96],[89.354,22.032],[89.389,22.077],[89.383,22.116],[89.408,22.127],[89.408,22.149],[89.417,22.159],[89.435,22.163],[89.463,22.143],[89.459,22.121],[89.485,22.09],[89.45,22.076],[89.436,22.095],[89.449,22.075],[89.428,22.053],[89.427,22.029],[89.421,22.033],[89.433,21.989],[89.392,21.986],[89.424,21.985],[89.417,21.97],[89.428,21.951],[89.457,21.934],[89.446,21.908],[89.471,21.902],[89.467,21.856],[89.421,21.847],[89.456,21.842],[89.474,21.793],[89.425,21.744],[89.426,21.736],[89.398,21.721],[89.36,21.752],[89.348,21.806]],[[89.447,21.811],[89.451,21.816],[89.443,21.81],[89.447,21.811]],[[89.421,21.893],[89.428,21.885],[89.45,21.875],[89.448,21.879],[89.421,21.893]],[[89.422,21.863],[89.42,21.854],[89.422,21.863],[89.446,21.868],[89.422,21.863]],[[89.431,21.818],[89.433,21.815],[89.432,21.819],[89.431,21.818]],[[89.424,22.123],[89.425,22.121],[89.425,22.124],[89.424,22.123]],[[89.412,21.75],[89.42,21.748],[89.41,21.752],[89.412,21.75]],[[89.413,21.905],[89.403,21.914],[89.418,21.896],[89.413,21.905]],[[89.418,22.036],[89.416,22.038],[89.417,22.036],[89.418,22.036]],[[89.413,22.111],[89.416,22.109],[89.414,22.114],[89.413,22.111]],[[89.41,21.999],[89.415,21.996],[89.41,22.003],[89.41,21.999]],[[89.412,21.85],[89.406,21.848],[89.413,21.849],[89.412,21.85]],[[89.41,22.05],[89.405,22.052],[89.41,22.048],[89.41,22.05]],[[89.405,21.92],[89.406,21.926],[89.404,21.92],[89.405,21.92]],[[89.402,21.964],[89.402,21.969],[89.401,21.964],[89.402,21.964]],[[89.403,21.851],[89.393,21.858],[89.403,21.85],[89.403,21.851]],[[89.375,21.958],[89.398,21.938],[89.4,21.939],[89.375,21.958]],[[89.393,21.995],[89.395,21.993],[89.394,21.995],[89.393,21.995]],[[89.39,21.932],[89.389,21.935],[89.389,21.933],[89.39,21.932]],[[89.387,21.873],[89.385,21.872],[89.391,21.873],[89.387,21.873]],[[89.389,21.959],[89.384,21.965],[89.381,21.965],[89.382,21.963],[89.389,21.959]],[[89.387,21.997],[89.39,21.998],[89.387,21.998],[89.387,21.997]],[[89.382,21.772],[89.382,21.767],[89.385,21.775],[89.382,21.772]],[[89.379,21.764],[89.375,21.76],[89.38,21.764],[89.379,21.764]]],[[[89.263,22.09],[89.277,22.113],[89.318,22.105],[89.323,22.085],[89.344,22.06],[89.318,22.108],[89.278,22.117],[89.289,22.151],[89.323,22.184],[89.332,22.182],[89.337,22.152],[89.327,22.141],[89.327,22.128],[89.337,22.125],[89.349,22.132],[89.349,22.113],[89.385,22.09],[89.343,22.031],[89.347,21.972],[89.325,21.993],[89.29,22.062],[89.304,22.072],[89.333,22.055],[89.341,22.055],[89.344,22.059],[89.307,22.077],[89.299,22.099],[89.263,22.09]]],[[[89.309,21.841],[89.314,21.858],[89.336,21.867],[89.319,21.863],[89.334,21.876],[89.364,21.884],[89.337,21.817],[89.336,21.79],[89.309,21.841]]],[[[89.21,21.952],[89.251,21.981],[89.249,21.991],[89.219,22.008],[89.254,22.06],[89.226,22.096],[89.248,22.095],[89.261,22.081],[89.296,22.085],[89.278,22.054],[89.303,21.997],[89.348,21.942],[89.36,21.9],[89.323,21.879],[89.306,21.857],[89.297,21.819],[89.281,21.836],[89.294,21.84],[89.308,21.87],[89.293,21.841],[89.284,21.843],[89.278,21.875],[89.293,21.892],[89.294,21.911],[89.279,21.924],[89.26,21.917],[89.232,21.949],[89.236,21.942],[89.21,21.952]],[[89.321,21.917],[89.319,21.918],[89.29,21.879],[89.321,21.917]],[[89.318,21.921],[89.315,21.921],[89.319,21.919],[89.318,21.921]],[[89.305,21.873],[89.293,21.875],[89.307,21.87],[89.305,21.873]],[[89.301,21.981],[89.3,21.983],[89.301,21.981],[89.301,21.981]],[[89.3,21.928],[89.299,21.928],[89.299,21.927],[89.3,21.928]],[[89.298,21.956],[89.293,21.961],[89.297,21.955],[89.298,21.956]],[[89.295,21.986],[89.289,21.986],[89.295,21.985],[89.295,21.986]],[[89.294,21.933],[89.292,21.934],[89.294,21.932],[89.294,21.933]],[[89.29,21.989],[89.292,21.991],[89.289,21.99],[89.29,21.989]],[[89.291,21.944],[89.289,21.949],[89.289,21.941],[89.291,21.944]],[[89.263,21.98],[89.266,21.979],[89.264,21.981],[89.263,21.98]]],[[[89.33,21.701],[89.337,21.718],[89.349,21.704],[89.34,21.696],[89.33,21.701]]],[[[89.208,21.657],[89.224,21.699],[89.246,21.689],[89.257,21.697],[89.292,21.689],[89.259,21.658],[89.208,21.657]]],[[[89.22,21.738],[89.231,21.752],[89.263,21.758],[89.285,21.749],[89.289,21.732],[89.278,21.703],[89.255,21.699],[89.248,21.692],[89.226,21.705],[89.22,21.738]]],[[[89.14,21.95],[89.171,21.996],[89.165,22.021],[89.185,22.022],[89.195,22.003],[89.242,21.988],[89.205,21.962],[89.202,21.949],[89.211,21.935],[89.241,21.929],[89.254,21.909],[89.285,21.905],[89.269,21.884],[89.272,21.847],[89.255,21.834],[89.249,21.818],[89.194,21.829],[89.213,21.913],[89.182,21.931],[89.155,21.925],[89.14,21.95]],[[89.253,21.886],[89.258,21.887],[89.252,21.887],[89.253,21.886]],[[89.183,21.933],[89.181,21.935],[89.182,21.932],[89.183,21.933]],[[89.166,21.949],[89.166,21.947],[89.167,21.949],[89.166,21.949]]],[[[89.249,21.817],[89.267,21.832],[89.282,21.797],[89.271,21.793],[89.287,21.782],[89.287,21.755],[89.262,21.761],[89.219,21.752],[89.192,21.786],[89.185,21.817],[89.193,21.826],[89.249,21.817]],[[89.249,21.806],[89.258,21.795],[89.266,21.794],[89.249,21.806]]],[[[89.034,21.915],[89.059,21.92],[89.061,21.884],[89.084,21.857],[89.077,21.812],[89.084,21.796],[89.144,21.754],[89.147,21.737],[89.136,21.722],[89.107,21.723],[89.068,21.773],[89.045,21.787],[89.061,21.853],[89.053,21.878],[89.034,21.895],[89.034,21.915]]]]}},{"type":"Feature","properties":{"shapeName":"Mymensingh","districts":4,"labelLng":90.404,"labelLat":24.839},"geometry":{"type":"Polygon","coordinates":[[[89.639,25.09],[89.65,25.107],[89.652,25.144],[89.701,25.232],[89.749,25.236],[89.756,25.281],[89.722,25.356],[89.749,25.379],[89.78,25.388],[89.784,25.413],[89.772,25.415],[89.767,25.433],[89.826,25.415],[89.821,25.356],[89.841,25.314],[89.833,25.295],[89.877,25.285],[89.909,25.308],[89.944,25.304],[89.949,25.293],[89.967,25.304],[89.981,25.281],[90.054,25.261],[90.118,25.224],[90.171,25.223],[90.225,25.201],[90.31,25.189],[90.33,25.194],[90.371,25.163],[90.441,25.145],[90.509,25.175],[90.641,25.175],[90.64,25.184],[90.651,25.182],[90.647,25.194],[90.658,25.186],[90.663,25.198],[90.666,25.166],[90.675,25.177],[90.686,25.175],[90.682,25.164],[90.698,25.157],[90.71,25.168],[90.733,25.155],[90.742,25.161],[90.734,25.167],[90.76,25.168],[90.78,25.186],[90.806,25.166],[90.85,25.158],[90.965,25.172],[90.97,25.161],[90.952,25.149],[90.956,25.12],[90.948,25.114],[90.971,25.095],[90.975,25.074],[90.929,25.078],[90.933,25.045],[90.965,25.036],[90.934,25.02],[90.947,25.005],[90.944,24.976],[90.973,24.958],[90.963,24.942],[90.949,24.94],[90.954,24.919],[90.965,24.911],[90.993,24.914],[90.998,24.893],[91.016,24.899],[91.018,24.885],[91.029,24.883],[91.044,24.908],[91.098,24.89],[91.114,24.848],[91.13,24.841],[91.113,24.817],[91.13,24.793],[91.144,24.795],[91.152,24.81],[91.143,24.825],[91.153,24.837],[91.171,24.827],[91.172,24.81],[91.161,24.793],[91.171,24.78],[91.136,24.757],[91.159,24.748],[91.156,24.741],[91.147,24.746],[91.152,24.73],[91.142,24.725],[91.159,24.725],[91.163,24.717],[91.18,24.724],[91.206,24.71],[91.225,24.728],[91.22,24.702],[91.241,24.692],[91.242,24.68],[91.224,24.675],[91.233,24.666],[91.23,24.655],[91.21,24.652],[91.205,24.632],[91.175,24.643],[91.164,24.632],[91.13,24.642],[91.129,24.61],[91.105,24.608],[91.105,24.6],[91.073,24.619],[91.038,24.611],[91.041,24.624],[91.03,24.63],[91.018,24.603],[90.977,24.6],[90.963,24.611],[90.939,24.602],[90.927,24.616],[90.916,24.613],[90.907,24.595],[90.857,24.599],[90.84,24.58],[90.821,24.588],[90.794,24.508],[90.758,24.512],[90.753,24.503],[90.743,24.509],[90.722,24.471],[90.703,24.517],[90.683,24.502],[90.678,24.467],[90.637,24.476],[90.605,24.499],[90.588,24.497],[90.574,24.482],[90.579,24.459],[90.597,24.444],[90.634,24.435],[90.646,24.416],[90.639,24.377],[90.618,24.339],[90.641,24.307],[90.649,24.258],[90.622,24.269],[90.573,24.246],[90.521,24.288],[90.529,24.303],[90.488,24.314],[90.443,24.341],[90.427,24.33],[90.428,24.31],[90.402,24.283],[90.38,24.29],[90.362,24.281],[90.359,24.3],[90.325,24.299],[90.29,24.278],[90.261,24.292],[90.248,24.333],[90.234,24.335],[90.229,24.348],[90.249,24.414],[90.229,24.42],[90.21,24.46],[90.243,24.482],[90.207,24.497],[90.209,24.509],[90.187,24.523],[90.174,24.518],[90.152,24.55],[90.151,24.574],[90.14,24.576],[90.125,24.596],[90.131,24.618],[90.148,24.635],[90.127,24.718],[90.132,24.734],[90.09,24.737],[90.088,24.752],[90.097,24.757],[90.078,24.787],[90.027,24.774],[90.02,24.755],[89.981,24.725],[89.957,24.731],[89.958,24.744],[89.941,24.744],[89.935,24.757],[89.922,24.756],[89.927,24.744],[89.907,24.734],[89.881,24.741],[89.88,24.708],[89.899,24.681],[89.891,24.674],[89.878,24.678],[89.866,24.662],[89.869,24.649],[89.843,24.645],[89.853,24.62],[89.843,24.623],[89.837,24.608],[89.828,24.609],[89.835,24.603],[89.823,24.595],[89.828,24.587],[89.811,24.584],[89.818,24.576],[89.812,24.567],[89.791,24.569],[89.765,24.614],[89.766,24.623],[89.785,24.626],[89.783,24.669],[89.799,24.68],[89.79,24.686],[89.792,24.703],[89.772,24.724],[89.783,24.724],[89.79,24.738],[89.777,24.743],[89.782,24.76],[89.772,24.773],[89.758,24.767],[89.741,24.774],[89.735,24.761],[89.715,24.777],[89.73,24.798],[89.681,24.835],[89.661,24.888],[89.686,24.904],[89.672,24.928],[89.677,24.966],[89.661,24.987],[89.649,25.038],[89.653,25.078],[89.639,25.09]]]}},{"type":"Feature","properties":{"shapeName":"Rajshahi","districts":8,"labelLng":88.94,"labelLat":24.543},"geometry":{"type":"Polygon","coordinates":[[[88.009,24.668],[88.063,24.722],[88.072,24.743],[88.068,24.769],[88.089,24.783],[88.106,24.78],[88.105,24.8],[88.124,24.823],[88.136,24.806],[88.132,24.836],[88.14,24.835],[88.145,24.851],[88.161,24.849],[88.162,24.858],[88.175,24.861],[88.153,24.885],[88.169,24.893],[88.14,24.914],[88.138,24.936],[88.157,24.934],[88.184,24.956],[88.226,24.96],[88.262,24.921],[88.26,24.878],[88.276,24.898],[88.278,24.889],[88.302,24.886],[88.303,24.873],[88.321,24.884],[88.331,24.87],[88.347,24.893],[88.333,24.897],[88.325,24.918],[88.336,24.919],[88.34,24.94],[88.355,24.943],[88.359,24.953],[88.371,24.943],[88.395,24.942],[88.402,24.951],[88.395,24.969],[88.405,24.98],[88.417,24.974],[88.412,24.999],[88.425,25.017],[88.435,25.006],[88.439,25.023],[88.453,25.037],[88.438,25.043],[88.435,25.056],[88.452,25.079],[88.441,25.128],[88.46,25.14],[88.459,25.161],[88.442,25.175],[88.443,25.195],[88.435,25.2],[88.44,25.21],[88.437,25.199],[88.463,25.195],[88.475,25.213],[88.499,25.21],[88.501,25.203],[88.538,25.198],[88.534,25.188],[88.558,25.193],[88.556,25.179],[88.565,25.175],[88.613,25.204],[88.67,25.198],[88.68,25.209],[88.708,25.208],[88.733,25.2],[88.735,25.185],[88.75,25.178],[88.773,25.189],[88.774,25.179],[88.805,25.171],[88.844,25.214],[88.851,25.201],[88.865,25.201],[88.865,25.19],[88.875,25.196],[88.876,25.179],[88.911,25.18],[88.913,25.168],[88.922,25.165],[88.933,25.181],[88.949,25.177],[88.947,25.194],[88.934,25.2],[88.936,25.211],[88.961,25.209],[88.952,25.232],[88.956,25.255],[88.987,25.275],[89.007,25.264],[89.033,25.277],[89.06,25.261],[89.07,25.27],[89.097,25.241],[89.117,25.242],[89.123,25.253],[89.14,25.247],[89.139,25.255],[89.151,25.256],[89.175,25.235],[89.197,25.239],[89.204,25.225],[89.184,25.185],[89.217,25.165],[89.223,25.154],[89.217,25.145],[89.231,25.144],[89.252,25.097],[89.28,25.088],[89.297,25.117],[89.331,25.123],[89.34,25.11],[89.332,25.1],[89.36,25.089],[89.36,25.067],[89.388,25.05],[89.391,25.066],[89.403,25.068],[89.399,25.079],[89.413,25.083],[89.425,25.066],[89.452,25.076],[89.452,25.057],[89.453,25.065],[89.465,25.061],[89.463,25.055],[89.488,25.062],[89.515,25.04],[89.53,25.046],[89.564,25.038],[89.61,25.051],[89.64,25.039],[89.648,25.047],[89.661,24.987],[89.677,24.966],[89.672,24.928],[89.686,24.903],[89.661,24.888],[89.669,24.865],[89.685,24.828],[89.73,24.798],[89.716,24.777],[89.736,24.763],[89.741,24.775],[89.78,24.765],[89.778,24.743],[89.791,24.735],[89.774,24.717],[89.792,24.703],[89.79,24.687],[89.799,24.68],[89.784,24.669],[89.785,24.626],[89.766,24.623],[89.789,24.572],[89.77,24.561],[89.77,24.54],[89.748,24.537],[89.748,24.52],[89.734,24.518],[89.758,24.5],[89.748,24.483],[89.758,24.483],[89.742,24.47],[89.743,24.456],[89.755,24.455],[89.747,24.431],[89.766,24.376],[89.752,24.351],[89.772,24.33],[89.774,24.302],[89.79,24.276],[89.783,24.237],[89.799,24.175],[89.78,24.166],[89.803,24.16],[89.82,24.141],[89.825,24.088],[89.817,24.064],[89.785,24.035],[89.722,24.014],[89.693,23.987],[89.685,23.926],[89.695,23.924],[89.702,23.896],[89.697,23.867],[89.704,23.877],[89.733,23.835],[89.672,23.81],[89.584,23.814],[89.572,23.808],[89.515,23.819],[89.469,23.839],[89.385,23.908],[89.365,23.911],[89.354,23.883],[89.347,23.889],[89.312,23.874],[89.278,23.906],[89.271,23.877],[89.264,23.879],[89.262,23.91],[89.236,23.946],[89.237,23.973],[89.217,23.972],[89.216,23.988],[89.178,23.987],[89.18,23.963],[89.163,23.95],[89.127,23.962],[89.099,23.96],[89.096,23.973],[89.073,23.978],[89.048,24.02],[89.026,24.092],[89.007,24.118],[88.94,24.132],[88.92,24.118],[88.921,24.128],[88.911,24.126],[88.912,24.113],[88.874,24.099],[88.881,24.115],[88.862,24.107],[88.844,24.126],[88.817,24.121],[88.787,24.133],[88.733,24.194],[88.737,24.27],[88.725,24.298],[88.705,24.313],[88.659,24.315],[88.653,24.305],[88.629,24.305],[88.623,24.316],[88.588,24.312],[88.587,24.324],[88.568,24.327],[88.555,24.293],[88.527,24.344],[88.508,24.343],[88.43,24.384],[88.389,24.372],[88.345,24.377],[88.263,24.446],[88.198,24.463],[88.106,24.546],[88.041,24.643],[88.009,24.668]],[[88.44,25.016],[88.438,25.013],[88.442,25.013],[88.44,25.016]],[[88.405,24.972],[88.404,24.973],[88.404,24.972],[88.405,24.972]]]}},{"type":"Feature","properties":{"shapeName":"Rangpur","districts":8,"labelLng":88.967,"labelLat":25.834},"geometry":{"type":"MultiPolygon","coordinates":[[[[88.086,25.916],[88.122,25.948],[88.115,25.963],[88.128,25.977],[88.13,25.997],[88.144,26.0],[88.14,26.013],[88.183,26.027],[88.169,26.045],[88.179,26.048],[88.182,26.072],[88.158,26.081],[88.162,26.105],[88.178,26.123],[88.177,26.148],[88.195,26.153],[88.196,26.163],[88.232,26.172],[88.242,26.189],[88.276,26.189],[88.286,26.2],[88.32,26.203],[88.331,26.217],[88.35,26.221],[88.359,26.242],[88.348,26.25],[88.35,26.282],[88.389,26.315],[88.415,26.315],[88.405,26.33],[88.435,26.336],[88.458,26.377],[88.463,26.358],[88.484,26.35],[88.492,26.352],[88.488,26.36],[88.508,26.363],[88.506,26.349],[88.523,26.361],[88.515,26.365],[88.524,26.374],[88.513,26.377],[88.518,26.39],[88.505,26.399],[88.509,26.407],[88.496,26.41],[88.501,26.417],[88.49,26.43],[88.496,26.437],[88.479,26.453],[88.485,26.46],[88.428,26.473],[88.42,26.466],[88.404,26.486],[88.388,26.479],[88.371,26.488],[88.361,26.485],[88.366,26.471],[88.355,26.447],[88.331,26.485],[88.359,26.53],[88.376,26.594],[88.398,26.604],[88.388,26.612],[88.411,26.635],[88.421,26.571],[88.437,26.544],[88.448,26.535],[88.459,26.547],[88.484,26.541],[88.49,26.511],[88.521,26.511],[88.527,26.482],[88.556,26.485],[88.56,26.457],[88.592,26.45],[88.594,26.471],[88.623,26.471],[88.624,26.435],[88.65,26.43],[88.647,26.417],[88.668,26.407],[88.68,26.414],[88.686,26.413],[88.687,26.401],[88.672,26.397],[88.702,26.389],[88.681,26.38],[88.696,26.362],[88.703,26.334],[88.713,26.344],[88.726,26.341],[88.733,26.354],[88.746,26.347],[88.734,26.33],[88.749,26.332],[88.746,26.322],[88.731,26.324],[88.719,26.312],[88.676,26.32],[88.685,26.295],[88.709,26.289],[88.686,26.282],[88.684,26.292],[88.668,26.297],[88.667,26.263],[88.683,26.261],[88.696,26.28],[88.722,26.283],[88.72,26.293],[88.745,26.291],[88.747,26.311],[88.764,26.299],[88.793,26.31],[88.819,26.295],[88.81,26.277],[88.813,26.255],[88.829,26.25],[88.828,26.24],[88.84,26.231],[88.877,26.234],[88.861,26.252],[88.861,26.273],[88.876,26.287],[88.898,26.289],[88.926,26.284],[88.957,26.241],[89.027,26.248],[89.05,26.242],[89.052,26.256],[89.063,26.255],[89.054,26.276],[89.062,26.279],[89.059,26.293],[89.046,26.295],[89.045,26.275],[89.02,26.29],[89.023,26.308],[89.017,26.289],[89.007,26.304],[88.996,26.29],[88.997,26.3],[88.985,26.301],[88.983,26.31],[88.985,26.318],[88.995,26.314],[88.991,26.322],[89.001,26.33],[88.985,26.334],[88.986,26.348],[88.962,26.352],[88.963,26.339],[88.956,26.33],[88.946,26.344],[88.958,26.358],[88.953,26.366],[88.948,26.356],[88.918,26.36],[88.911,26.373],[88.92,26.378],[88.909,26.38],[88.918,26.401],[88.904,26.408],[88.927,26.407],[88.923,26.423],[88.933,26.426],[88.926,26.432],[88.944,26.426],[88.951,26.434],[88.946,26.448],[88.964,26.451],[88.956,26.46],[88.983,26.447],[88.981,26.426],[88.994,26.413],[88.994,26.423],[89.006,26.422],[89.007,26.413],[89.03,26.407],[89.034,26.395],[89.087,26.398],[89.081,26.391],[89.096,26.392],[89.088,26.366],[89.08,26.363],[89.098,26.359],[89.101,26.337],[89.087,26.322],[89.097,26.329],[89.113,26.319],[89.123,26.322],[89.136,26.32],[89.135,26.296],[89.122,26.288],[89.108,26.313],[89.099,26.304],[89.107,26.299],[89.105,26.275],[89.125,26.264],[89.12,26.253],[89.139,26.238],[89.149,26.21],[89.135,26.181],[89.157,26.163],[89.149,26.158],[89.155,26.14],[89.192,26.124],[89.229,26.124],[89.253,26.093],[89.267,26.092],[89.255,26.064],[89.281,26.066],[89.276,26.049],[89.3,26.051],[89.346,26.012],[89.393,26.009],[89.391,26.023],[89.424,26.047],[89.433,26.039],[89.433,26.01],[89.481,25.998],[89.491,26.006],[89.541,26.006],[89.548,26.001],[89.535,25.989],[89.541,25.97],[89.557,25.966],[89.566,25.98],[89.569,25.968],[89.578,25.969],[89.573,25.979],[89.586,25.982],[89.579,26.026],[89.587,26.038],[89.598,26.038],[89.592,26.045],[89.613,26.053],[89.605,26.063],[89.619,26.054],[89.65,26.064],[89.634,26.08],[89.639,26.091],[89.63,26.107],[89.614,26.104],[89.617,26.095],[89.608,26.089],[89.597,26.098],[89.598,26.113],[89.614,26.107],[89.63,26.119],[89.626,26.128],[89.605,26.117],[89.591,26.157],[89.619,26.168],[89.611,26.169],[89.609,26.181],[89.624,26.179],[89.624,26.172],[89.63,26.196],[89.642,26.185],[89.649,26.19],[89.632,26.212],[89.634,26.23],[89.671,26.22],[89.679,26.238],[89.689,26.221],[89.679,26.223],[89.68,26.214],[89.691,26.212],[89.674,26.205],[89.702,26.174],[89.676,26.166],[89.702,26.152],[89.714,26.169],[89.721,26.157],[89.748,26.157],[89.766,26.131],[89.756,26.109],[89.783,26.106],[89.782,26.084],[89.795,26.087],[89.799,26.06],[89.785,26.057],[89.788,26.048],[89.774,26.037],[89.802,26.04],[89.795,26.023],[89.809,26.043],[89.819,26.026],[89.82,25.988],[89.836,25.983],[89.836,26.013],[89.85,25.99],[89.871,25.981],[89.872,25.974],[89.839,25.968],[89.849,25.949],[89.831,25.955],[89.826,25.946],[89.887,25.945],[89.833,25.871],[89.835,25.841],[89.817,25.815],[89.827,25.81],[89.841,25.759],[89.827,25.73],[89.835,25.716],[89.85,25.713],[89.847,25.695],[89.871,25.663],[89.882,25.617],[89.866,25.546],[89.851,25.538],[89.86,25.518],[89.849,25.492],[89.852,25.466],[89.826,25.415],[89.767,25.432],[89.772,25.415],[89.784,25.413],[89.78,25.388],[89.749,25.379],[89.723,25.357],[89.756,25.281],[89.749,25.236],[89.701,25.232],[89.652,25.144],[89.65,25.106],[89.639,25.09],[89.653,25.078],[89.656,25.05],[89.64,25.039],[89.61,25.051],[89.564,25.038],[89.515,25.04],[89.488,25.062],[89.462,25.055],[89.465,25.061],[89.454,25.065],[89.453,25.056],[89.452,25.076],[89.426,25.065],[89.413,25.083],[89.4,25.078],[89.403,25.068],[89.391,25.066],[89.389,25.047],[89.381,25.06],[89.36,25.066],[89.359,25.089],[89.331,25.1],[89.34,25.11],[89.331,25.123],[89.297,25.117],[89.28,25.088],[89.252,25.097],[89.231,25.144],[89.217,25.145],[89.217,25.163],[89.184,25.185],[89.204,25.228],[89.193,25.241],[89.175,25.235],[89.15,25.256],[89.14,25.255],[89.14,25.247],[89.122,25.253],[89.118,25.242],[89.097,25.241],[89.07,25.269],[89.06,25.261],[89.029,25.277],[89.019,25.266],[89.008,25.268],[89.008,25.303],[88.996,25.296],[88.984,25.306],[88.939,25.301],[88.928,25.315],[88.915,25.313],[88.906,25.338],[88.888,25.337],[88.885,25.326],[88.867,25.343],[88.868,25.352],[88.84,25.364],[88.837,25.402],[88.812,25.411],[88.83,25.417],[88.834,25.431],[88.826,25.445],[88.839,25.459],[88.83,25.49],[88.814,25.488],[88.81,25.523],[88.783,25.515],[88.761,25.526],[88.759,25.51],[88.771,25.505],[88.765,25.495],[88.74,25.489],[88.742,25.505],[88.708,25.5],[88.71,25.481],[88.7,25.471],[88.646,25.479],[88.648,25.496],[88.622,25.497],[88.606,25.509],[88.609,25.516],[88.596,25.506],[88.553,25.52],[88.54,25.508],[88.533,25.542],[88.523,25.535],[88.498,25.556],[88.5,25.584],[88.469,25.583],[88.457,25.599],[88.444,25.597],[88.455,25.629],[88.454,25.665],[88.402,25.673],[88.404,25.685],[88.371,25.697],[88.374,25.716],[88.337,25.738],[88.321,25.738],[88.316,25.753],[88.268,25.781],[88.269,25.808],[88.236,25.809],[88.232,25.798],[88.215,25.8],[88.209,25.787],[88.184,25.802],[88.152,25.776],[88.142,25.78],[88.144,25.794],[88.114,25.798],[88.12,25.813],[88.107,25.815],[88.111,25.822],[88.101,25.829],[88.108,25.839],[88.101,25.844],[88.114,25.855],[88.109,25.869],[88.103,25.862],[88.094,25.874],[88.103,25.889],[88.09,25.896],[88.094,25.911],[88.086,25.916]],[[89.794,26.022],[89.788,26.021],[89.788,26.019],[89.794,26.022]],[[89.643,26.183],[89.632,26.172],[89.649,26.165],[89.658,26.176],[89.643,26.183]],[[89.611,26.157],[89.607,26.155],[89.61,26.154],[89.611,26.157]],[[89.538,26.005],[89.537,26.002],[89.538,26.004],[89.538,26.005]],[[89.129,26.299],[89.129,26.301],[89.128,26.301],[89.129,26.299]],[[89.128,26.319],[89.129,26.32],[89.127,26.32],[89.128,26.319]],[[89.102,26.279],[89.102,26.281],[89.101,26.279],[89.102,26.279]],[[89.039,26.286],[89.04,26.284],[89.041,26.285],[89.039,26.286]],[[89.026,26.242],[89.024,26.242],[89.025,26.241],[89.026,26.242]],[[89.022,26.404],[89.022,26.408],[89.019,26.405],[89.022,26.404]],[[88.953,26.346],[88.956,26.341],[88.958,26.343],[88.953,26.346]],[[88.691,26.329],[88.691,26.325],[88.696,26.327],[88.691,26.329]],[[88.681,26.409],[88.68,26.411],[88.68,26.409],[88.681,26.409]]],[[[89.607,26.176],[89.603,26.173],[89.587,26.178],[89.597,26.192],[89.589,26.197],[89.594,26.203],[89.607,26.176]]],[[[89.587,26.189],[89.586,26.184],[89.583,26.184],[89.587,26.189]]],[[[89.699,26.18],[89.703,26.182],[89.703,26.177],[89.699,26.18]]],[[[89.619,26.186],[89.615,26.191],[89.614,26.197],[89.623,26.199],[89.619,26.186]]],[[[89.614,26.067],[89.617,26.08],[89.621,26.068],[89.614,26.067]]],[[[89.609,26.204],[89.617,26.205],[89.617,26.202],[89.609,26.204]]],[[[89.552,26.063],[89.573,26.063],[89.572,26.053],[89.558,26.05],[89.552,26.063]]],[[[89.511,26.024],[89.522,26.024],[89.514,26.011],[89.515,26.016],[89.511,26.024]]],[[[89.498,26.067],[89.514,26.066],[89.514,26.06],[89.505,26.058],[89.498,26.067]]],[[[89.414,26.099],[89.422,26.107],[89.428,26.1],[89.427,26.098],[89.414,26.099]]],[[[89.394,26.087],[89.399,26.095],[89.421,26.081],[89.412,26.077],[89.394,26.087]]],[[[89.18,26.239],[89.181,26.245],[89.187,26.243],[89.18,26.239]]],[[[89.133,26.262],[89.142,26.271],[89.148,26.262],[89.141,26.255],[89.153,26.266],[89.172,26.263],[89.171,26.24],[89.158,26.235],[89.159,26.251],[89.156,26.238],[89.143,26.242],[89.133,26.262]],[[89.169,26.261],[89.166,26.263],[89.166,26.262],[89.169,26.261]]],[[[89.147,26.302],[89.144,26.303],[89.147,26.304],[89.147,26.302]]],[[[89.132,26.291],[89.13,26.293],[89.132,26.293],[89.132,26.291]]],[[[89.117,26.278],[89.113,26.285],[89.118,26.285],[89.117,26.278]]],[[[89.076,26.401],[89.072,26.403],[89.075,26.406],[89.076,26.401]]],[[[89.069,26.402],[89.066,26.402],[89.067,26.406],[89.069,26.402]]],[[[89.056,26.402],[89.059,26.404],[89.058,26.401],[89.056,26.402]]],[[[89.022,26.271],[89.034,26.269],[89.033,26.256],[89.029,26.257],[89.022,26.271]]],[[[88.998,26.255],[89.004,26.265],[89.015,26.266],[89.006,26.25],[88.998,26.255]]],[[[88.993,26.28],[89.0,26.284],[89.003,26.281],[89.0,26.278],[88.993,26.28]]],[[[88.918,26.326],[88.921,26.336],[88.938,26.335],[88.938,26.314],[88.952,26.316],[88.961,26.295],[88.984,26.3],[88.982,26.283],[88.954,26.275],[88.928,26.292],[88.931,26.307],[88.918,26.326]]],[[[88.939,26.351],[88.941,26.355],[88.943,26.352],[88.939,26.351]]]]}},{"type":"Feature","properties":{"shapeName":"Sylhet","districts":4,"labelLng":91.72,"labelLat":24.592},"geometry":{"type":"Polygon","coordinates":[[[90.928,25.078],[90.975,25.074],[90.971,25.095],[90.947,25.114],[90.956,25.12],[90.952,25.149],[90.97,25.161],[90.965,25.172],[91.068,25.192],[91.07,25.199],[91.25,25.196],[91.268,25.207],[91.292,25.193],[91.292,25.184],[91.354,25.172],[91.364,25.178],[91.399,25.165],[91.415,25.171],[91.441,25.15],[91.469,25.152],[91.471,25.134],[91.499,25.136],[91.509,25.148],[91.557,25.15],[91.563,25.161],[91.575,25.161],[91.577,25.172],[91.609,25.177],[91.615,25.17],[91.604,25.167],[91.602,25.144],[91.621,25.144],[91.623,25.128],[91.637,25.123],[91.664,25.128],[91.668,25.138],[91.692,25.137],[91.704,25.16],[91.744,25.141],[91.745,25.17],[91.756,25.178],[91.775,25.163],[91.827,25.178],[91.861,25.173],[91.931,25.181],[91.981,25.172],[92.003,25.186],[92.026,25.18],[92.062,25.187],[92.133,25.16],[92.14,25.155],[92.135,25.143],[92.144,25.14],[92.137,25.138],[92.166,25.136],[92.16,25.127],[92.184,25.119],[92.191,25.135],[92.22,25.116],[92.201,25.12],[92.197,25.108],[92.222,25.104],[92.227,25.094],[92.31,25.069],[92.334,25.079],[92.348,25.074],[92.341,25.049],[92.363,25.05],[92.369,25.041],[92.425,25.03],[92.42,24.968],[92.462,24.969],[92.468,24.96],[92.45,24.95],[92.449,24.939],[92.487,24.947],[92.484,24.929],[92.497,24.902],[92.488,24.871],[92.445,24.873],[92.436,24.857],[92.407,24.86],[92.4,24.85],[92.386,24.853],[92.375,24.874],[92.363,24.873],[92.347,24.893],[92.34,24.878],[92.301,24.916],[92.28,24.906],[92.235,24.904],[92.248,24.886],[92.246,24.868],[92.235,24.862],[92.241,24.843],[92.255,24.839],[92.249,24.83],[92.273,24.828],[92.273,24.8],[92.289,24.785],[92.28,24.745],[92.296,24.737],[92.247,24.655],[92.231,24.531],[92.213,24.504],[92.169,24.532],[92.159,24.529],[92.151,24.495],[92.169,24.428],[92.164,24.419],[92.137,24.425],[92.122,24.382],[92.102,24.383],[92.09,24.372],[92.044,24.375],[92.02,24.387],[92.007,24.382],[91.996,24.394],[91.986,24.377],[91.971,24.385],[91.967,24.38],[91.997,24.337],[91.996,24.322],[91.977,24.328],[91.957,24.357],[91.921,24.336],[91.941,24.268],[91.906,24.139],[91.885,24.139],[91.874,24.174],[91.848,24.185],[91.842,24.201],[91.855,24.213],[91.845,24.226],[91.816,24.21],[91.746,24.246],[91.759,24.142],[91.728,24.143],[91.703,24.164],[91.684,24.166],[91.666,24.233],[91.648,24.219],[91.66,24.19],[91.655,24.176],[91.646,24.178],[91.647,24.157],[91.635,24.138],[91.638,24.103],[91.611,24.092],[91.595,24.096],[91.598,24.085],[91.586,24.073],[91.575,24.08],[91.545,24.074],[91.476,24.101],[91.375,24.108],[91.377,24.08],[91.397,24.05],[91.374,24.003],[91.38,23.983],[91.374,23.975],[91.361,23.986],[91.341,23.982],[91.33,23.993],[91.297,23.998],[91.312,24.039],[91.304,24.056],[91.284,24.061],[91.293,24.093],[91.267,24.094],[91.271,24.113],[91.292,24.117],[91.272,24.124],[91.272,24.14],[91.262,24.146],[91.267,24.158],[91.275,24.157],[91.277,24.182],[91.305,24.191],[91.313,24.183],[91.315,24.193],[91.312,24.203],[91.285,24.195],[91.277,24.203],[91.284,24.218],[91.298,24.214],[91.299,24.223],[91.324,24.23],[91.325,24.26],[91.302,24.266],[91.284,24.245],[91.286,24.223],[91.267,24.223],[91.195,24.24],[91.177,24.257],[91.174,24.265],[91.193,24.28],[91.196,24.293],[91.159,24.283],[91.177,24.321],[91.235,24.316],[91.235,24.333],[91.213,24.362],[91.256,24.379],[91.237,24.407],[91.214,24.403],[91.217,24.432],[91.242,24.428],[91.226,24.482],[91.215,24.483],[91.219,24.475],[91.205,24.481],[91.191,24.466],[91.184,24.471],[91.193,24.481],[91.15,24.48],[91.169,24.5],[91.183,24.495],[91.211,24.521],[91.234,24.569],[91.206,24.577],[91.197,24.589],[91.204,24.594],[91.2,24.609],[91.177,24.62],[91.178,24.63],[91.205,24.632],[91.21,24.652],[91.23,24.655],[91.224,24.675],[91.242,24.68],[91.241,24.692],[91.22,24.702],[91.229,24.724],[91.222,24.728],[91.207,24.709],[91.18,24.724],[91.163,24.717],[91.159,24.725],[91.141,24.724],[91.152,24.73],[91.151,24.748],[91.135,24.757],[91.171,24.78],[91.161,24.792],[91.172,24.81],[91.171,24.827],[91.153,24.837],[91.143,24.826],[91.153,24.809],[91.145,24.795],[91.13,24.793],[91.112,24.817],[91.129,24.841],[91.114,24.848],[91.098,24.889],[91.044,24.908],[91.029,24.883],[91.018,24.885],[91.015,24.898],[90.998,24.892],[90.993,24.914],[90.965,24.911],[90.953,24.919],[90.949,24.94],[90.963,24.942],[90.973,24.958],[90.944,24.976],[90.947,25.004],[90.934,25.02],[90.964,25.036],[90.933,25.045],[90.928,25.078]],[[91.157,24.75],[91.155,24.741],[91.158,24.742],[91.157,24.75]]]}}]}